{"version": 0.6, "generator": "Overpass API 0.7.62.7 375dc00a", "osm3s": {"timestamp_osm_base": "2025-07-25T10:13:03Z", "copyright": "The data included in this document is from www.openstreetmap.org. The data is made available under ODbL."}, "elements": [{"type": "node", "id": 241429094, "lat": 51.2177256, "lon": 6.7877283, "tags": {"addr:city": "D\u00fcsseldorf", "addr:housenumber": "99", "addr:postcode": "40215", "addr:street": "Adersstra\u00dfe", "name": "Trinkhalle die Ecke", "payment:cash": "yes", "payment:debit_cards": "yes", "shop": "kiosk", "wheelchair": "no"}}, {"type": "node", "id": 241783187, "lat": 51.24167, "lon": 6.8267651, "tags": {"opening_hours": "Mar-Oct: Mo-Fr 07:30-22:00, Sa 10:00-22:00, Su 09:00-22:00; Nov-Feb: Mo-Fr 07:30-21:00, Sa 10:00-21:00, Su 09:00-21:00", "phone": "+49(0)1786604552", "shop": "kiosk", "source": "survey", "wheelchair": "yes"}}, {"type": "node", "id": 241783279, "lat": 51.2316049, "lon": 6.7985806, "tags": {"shop": "kiosk", "source": "survey"}}, {"type": "node", "id": 241783407, "lat": 51.2272946, "lon": 6.8012049, "tags": {"name": "Yasar Markt", "shop": "kiosk", "wheelchair": "no"}}, {"type": "node", "id": 241789914, "lat": 51.2281574, "lon": 6.8112497, "tags": {"shop": "kiosk", "source": "survey"}}, {"type": "node", "id": 241793032, "lat": 51.2235273, "lon": 6.7958795, "tags": {"addr:city": "D\u00fcsseldorf", "addr:country": "DE", "addr:housenumber": "104", "addr:postcode": "40210", "addr:street": "Worringer Stra\u00dfe", "name": "my Kiosk & Bakery", "shop": "kiosk", "source": "survey"}}, {"type": "node", "id": 241873118, "lat": 51.2241902, "lon": 6.7962488, "tags": {"shop": "kiosk", "wheelchair": "limited"}}, {"type": "node", "id": 241875521, "lat": 51.2263401, "lon": 6.7941535, "tags": {"addr:city": "D\u00fcsseldorf", "addr:country": "DE", "addr:housenumber": "70", "addr:postcode": "40211", "addr:street": "Sch\u00fctzenstra\u00dfe", "name": "Ghana House", "opening_hours": "Mo-Sa 09:30-21:00", "shop": "kiosk", "wheelchair": "yes"}}, {"type": "node", "id": 247410032, "lat": 51.1713254, "lon": 6.8333943, "tags": {"name": "Kiosk Inh. A. Asian", "opening_hours": "Mo-Sa 09:00-20:00; Su 11:00-16:00", "shop": "kiosk", "source": "survey"}}, {"type": "node", "id": 249845420, "lat": 51.2175401, "lon": 6.848574, "tags": {"disused:amenity": "clock", "shop": "kiosk", "source": "survey"}}, {"type": "node", "id": 249858574, "lat": 51.208235, "lon": 6.8306163, "tags": {"addr:city": "D\u00fcsseldorf", "addr:country": "DE", "addr:housenumber": "2a", "addr:postcode": "40231", "addr:street": "Schlesische Stra\u00dfe", "shop": "kiosk", "wheelchair": "no"}}, {"type": "node", "id": 250069414, "lat": 51.2150554, "lon": 6.7932507, "tags": {"name": "Stehcaf\u00e9", "opening_hours": "Mo-Fr 06:00-21:00; Sa 07:00-21:00; Su 08:00-21:00", "shop": "kiosk", "wheelchair": "no"}}, {"type": "node", "id": 250069417, "lat": 51.2171241, "lon": 6.7932636, "tags": {"check_date": "2025-04-22", "name": "Trinkhalle", "shop": "kiosk"}}, {"type": "node", "id": 250230681, "lat": 51.2234726, "lon": 6.8084965, "tags": {"shop": "kiosk"}}, {"type": "node", "id": 250233253, "lat": 51.2227419, "lon": 6.8030124, "tags": {"shop": "kiosk", "wheelchair": "limited"}}, {"type": "node", "id": 253029948, "lat": 51.197136, "lon": 6.8360593, "tags": {"name": "Steh-Caf\u00e9", "shop": "kiosk", "wheelchair": "yes"}}, {"type": "node", "id": 253862050, "lat": 51.1938127, "lon": 6.8135305, "tags": {"amenity": "fuel", "brand": "Shell", "brand:wikidata": "Q154950", "brand:wikipedia": "en:Shell plc", "fuel:GTL_diesel": "yes", "fuel:diesel": "yes", "fuel:e10": "yes", "fuel:octane_100": "yes", "fuel:octane_95": "yes", "fuel:octane_98": "no", "name": "Shell", "opening_hours": "Mo-Su,PH 00:00-24:00", "shop": "kiosk", "wheelchair": "limited"}}, {"type": "node", "id": 257430453, "lat": 51.1641695, "lon": 6.8819403, "tags": {"name": "Eckkiosk", "opening_hours": "Mo-Th 6:00-21:00, Fr 6:00-22:00; Sa 7:00-22:00; Su,PH 10:00-21:00", "shop": "kiosk"}}, {"type": "node", "id": 258087991, "lat": 51.1823774, "lon": 6.8719631, "tags": {"addr:city": "D\u00fcsseldorf", "addr:country": "DE", "addr:housenumber": "110", "addr:postcode": "40599", "addr:street": "Am Sch\u00f6nenkamp", "shop": "kiosk", "wheelchair": "yes"}}, {"type": "node", "id": 267238597, "lat": 51.2269008, "lon": 6.8575174, "tags": {"addr:city": "D\u00fcsseldorf", "addr:country": "DE", "addr:housenumber": "301", "addr:postcode": "40625", "addr:street": "Torfbruchstra\u00dfe", "amenity": "fuel", "brand": "Esso", "brand:wikidata": "Q867662", "brand:wikipedia": "en:Esso", "compressed_air": "yes", "fuel:diesel": "yes", "fuel:e10": "yes", "name": "Esso", "operator": "Esso", "shop": "kiosk", "wheelchair": "yes"}}, {"type": "node", "id": 267398983, "lat": 51.1993292, "lon": 6.8863315, "tags": {"addr:city": "D\u00fcsseldorf", "addr:country": "DE", "addr:housenumber": "29", "addr:postcode": "40627", "addr:street": "Kleiner Torfbruch", "shop": "kiosk", "wheelchair": "yes"}}, {"type": "node", "id": 274802988, "lat": 51.2066948, "lon": 6.7650994, "tags": {"addr:city": "D\u00fcsseldorf", "addr:country": "DE", "addr:housenumber": "2", "addr:postcode": "40223", "addr:street": "Suitbertusstra\u00dfe", "name": "Kiosk Ykhorshid", "opening_hours": "Su-Th 09:00-22:00; Fr,Sa 09:00-23:00", "operator": "Ykhorshid", "payment:cash": "yes", "payment:credit_cards": "yes", "payment:debit_cards": "yes", "shop": "kiosk", "wheelchair": "no"}}, {"type": "node", "id": 278006969, "lat": 51.2434227, "lon": 6.7900605, "tags": {"description": "Kiosk", "shop": "kiosk", "wheelchair": "no"}}, {"type": "node", "id": 280499047, "lat": 51.2169466, "lon": 6.8031058, "tags": {"addr:city": "D\u00fcsseldorf", "addr:country": "DE", "addr:housenumber": "186", "addr:postcode": "40227", "addr:street": "K\u00f6lner Stra\u00dfe", "name": "Stefano", "shop": "kiosk", "wheelchair": "yes"}}, {"type": "node", "id": 281247316, "lat": 51.2107058, "lon": 6.8016677, "tags": {"name:signed": "no", "shop": "kiosk", "wheelchair": "no"}}, {"type": "node", "id": 290348321, "lat": 51.2043337, "lon": 6.7722362, "tags": {"addr:city": "D\u00fcsseldorf", "addr:country": "DE", "addr:housenumber": "99", "addr:postcode": "40223", "addr:street": "Suitbertusstra\u00dfe", "name": "Stehcafe (Trinkhalle)", "opening_hours": "Mo-Th 06:00-24:00, Fr 06:00-01:00, Sa 07:00-01:00, Su 06:00-24:00", "shop": "kiosk", "wheelchair": "limited"}}, {"type": "node", "id": 307042211, "lat": 51.2119984, "lon": 6.8370059, "tags": {"name": "Ute's B\u00fcdchen", "shop": "kiosk"}}, {"type": "node", "id": 310600259, "lat": 51.2172193, "lon": 6.7854842, "tags": {"name": "QuickShop", "opening_hours": "Mo-Fr 07:00-23:00; Sa 08:00-23:00; Su,PH 11:00-23:00", "shop": "kiosk", "source": "survey", "wheelchair": "yes"}}, {"type": "node", "id": 310600263, "lat": 51.2181231, "lon": 6.7831091, "tags": {"addr:city": "D\u00fcsseldorf", "addr:country": "DE", "addr:housenumber": "48", "addr:postcode": "40215", "addr:street": "Adersstra\u00dfe", "name": "Isfahan", "shop": "kiosk", "source": "survey"}}, {"type": "node", "id": 310601229, "lat": 51.218561, "lon": 6.776737, "tags": {"addr:city": "D\u00fcsseldorf", "addr:country": "DE", "addr:housenumber": "1", "addr:postcode": "40217", "addr:street": "Friedrichstra\u00dfe", "name": "Pickers GO", "shop": "kiosk", "wheelchair": "yes"}}, {"type": "node", "id": 317074197, "lat": 51.210823, "lon": 6.8347508, "tags": {"shop": "kiosk"}}, {"type": "node", "id": 317074199, "lat": 51.2089414, "lon": 6.8366969, "tags": {"lottery": "yes", "name": "Elke Kaspar", "shop": "kiosk", "wheelchair": "yes"}}, {"type": "node", "id": 317651205, "lat": 51.2070554, "lon": 6.8407746, "tags": {"name": "Paradies 58", "shop": "kiosk", "wheelchair": "no"}}, {"type": "node", "id": 332038494, "lat": 51.2385102, "lon": 6.8494079, "tags": {"amenity": "pharmacy", "healthcare": "pharmacy", "name": "Ph\u00f6nix Apotheke", "shop": "kiosk", "wheelchair": "no"}}, {"type": "node", "id": 339422457, "lat": 51.2315086, "lon": 6.7473565, "tags": {"check_date": "2025-07-09", "name": "Kantinchen", "shop": "kiosk", "wheelchair": "yes"}}, {"type": "node", "id": 369377128, "lat": 51.231582, "lon": 6.8599273, "tags": {"addr:city": "D\u00fcsseldorf", "addr:country": "DE", "addr:housenumber": "44", "addr:postcode": "40625", "addr:street": "Heyestra\u00dfe", "name": "Kiosk Gerresheim", "note": "Hermes-Paketshop", "shop": "kiosk"}}, {"type": "node", "id": 369377178, "lat": 51.2354145, "lon": 6.8617312, "tags": {"addr:city": "D\u00fcsseldorf", "addr:housenumber": "25", "addr:postcode": "40625", "addr:street": "K\u00f6lner Tor", "brand": "City Kiosk", "name": "City Kiosk", "opening_hours": "Mo-Su 6:00-24:00", "shop": "kiosk"}}, {"type": "node", "id": 381284877, "lat": 51.1638658, "lon": 6.8855755, "tags": {"addr:city": "D\u00fcsseldorf", "addr:country": "DE", "addr:housenumber": "17", "addr:postcode": "40597", "addr:street": "Rheinstahlstra\u00dfe", "name": "Trinkhalle", "shop": "kiosk", "toilets:wheelchair": "no", "wheelchair": "limited"}}, {"type": "node", "id": 387418846, "lat": 51.2077782, "lon": 6.8521392, "tags": {"shop": "kiosk"}}, {"type": "node", "id": 465709279, "lat": 51.2370957, "lon": 6.7979914, "tags": {"addr:city": "D\u00fcsseldorf", "addr:country": "DE", "addr:housenumber": "100", "addr:postcode": "40237", "addr:street": "Rethelstra\u00dfe", "check_date:opening_hours": "2025-04-10", "name": "Kiosk", "opening_hours:signed": "no", "shop": "kiosk", "wheelchair": "yes"}}, {"type": "node", "id": 469174146, "lat": 51.2404566, "lon": 6.7996551, "tags": {"addr:city": "D\u00fcsseldorf", "addr:country": "DE", "addr:housenumber": "22", "addr:postcode": "40239", "addr:street": "Weseler Stra\u00dfe", "name": "Stehcafe", "opening_hours": "Mo-Sa 05:30-22:00", "operator": "U. Im\u00f6hl", "shop": "kiosk", "wheelchair": "yes", "wheelchair:description": "Rampe am Eingang"}}, {"type": "node", "id": 469238057, "lat": 51.2354134, "lon": 6.7992054, "tags": {"addr:city": "D\u00fcsseldorf", "addr:country": "DE", "addr:housenumber": "30", "addr:postcode": "40237", "addr:street": "Herderstra\u00dfe", "name": "Trinkhalle", "opening_hours": "Mo-Fr 08:00-22:00; Sa,Su 08:00-22:00", "shop": "kiosk", "wheelchair": "no"}}, {"type": "node", "id": 469292138, "lat": 51.2356836, "lon": 6.8018035, "tags": {"addr:city": "D\u00fcsseldorf", "addr:country": "DE", "addr:housenumber": "82", "addr:postcode": "40237", "addr:street": "Achenbachstra\u00dfe", "check_date:opening_hours": "2025-04-28", "name": "Trinkhalle Schillerplatz", "opening_hours:signed": "no", "shop": "kiosk", "toilets:wheelchair": "no", "wheelchair": "yes"}}, {"type": "node", "id": 481038768, "lat": 51.2208915, "lon": 6.7920901, "tags": {"name": "Tabak B\u00f6rse", "opening_hours": "Mo-Fr 06:00-24:00", "shop": "kiosk"}}, {"type": "node", "id": 497323409, "lat": 51.2497006, "lon": 6.7820006, "tags": {"addr:city": "D\u00fcsseldorf", "addr:country": "DE", "addr:housenumber": "114", "addr:postcode": "40476", "addr:street": "Ulmenstra\u00dfe", "contact:phone": "+49 211 17808067", "name": "Handy Cafe", "old_name": "Ulmen Kiosk", "opening_hours": "Mo-Su 06:00-22:00", "shop": "kiosk", "wheelchair": "no"}}, {"type": "node", "id": 520209437, "lat": 51.2387695, "lon": 6.8034829, "tags": {"access:covid19": "yes", "addr:city": "D\u00fcsseldorf", "addr:country": "DE", "addr:housenumber": "2", "addr:postcode": "40239", "addr:street": "Graf-Recke-Stra\u00dfe", "name": "Trinkhalle am Zoo", "opening_hours": "Mo-Fr 08:00-22:00; Sa,Su 08:00-22:00", "shop": "kiosk", "takeaway:covid19": "no", "toilets:wheelchair": "no", "wheelchair": "yes"}}, {"type": "node", "id": 531309164, "lat": 51.2074666, "lon": 6.7763799, "tags": {"addr:city": "D\u00fcsseldorf", "addr:country": "DE", "addr:housenumber": "3", "addr:postcode": "40223", "addr:street": "Aachener Stra\u00dfe", "check_date": "2025-02-22", "name": "Getr\u00e4nke Shop", "shop": "kiosk"}}, {"type": "node", "id": 627289195, "lat": 51.2225565, "lon": 6.8109852, "tags": {"name": "Ihr Trink-Shop", "shop": "kiosk"}}, {"type": "node", "id": 633391190, "lat": 51.2299938, "lon": 6.8474677, "tags": {"addr:city": "D\u00fcsseldorf", "addr:country": "DE", "addr:housenumber": "112", "addr:postcode": "40625", "addr:street": "Dreherstra\u00dfe", "name": "DPD Partner Kiosk E. Topalis", "opening_hours": "Mo-Sa 07:00-21:00", "shop": "kiosk", "wheelchair": "no"}}, {"type": "node", "id": 660199087, "lat": 51.2370221, "lon": 6.8605998, "tags": {"name": "Tabakwaren Degen", "shop": "kiosk", "vending": "public_transport_tickets", "wheelchair": "no"}}, {"type": "node", "id": 664018676, "lat": 51.2307595, "lon": 6.8491513, "tags": {"addr:city": "D\u00fcsseldorf", "addr:country": "DE", "addr:housenumber": "165", "addr:postcode": "40625", "addr:street": "Dreherstra\u00dfe", "name": "Trinkhalle bei Chris", "shop": "kiosk", "wheelchair": "no"}}, {"type": "node", "id": 667195036, "lat": 51.2257836, "lon": 6.8055943, "tags": {"check_date": "2025-04-01", "name": "Stehcafe Flingern", "shop": "kiosk"}}, {"type": "node", "id": 672489775, "lat": 51.2287384, "lon": 6.8012785, "tags": {"name": "SKY KIOSK", "shop": "kiosk", "wheelchair": "limited"}}, {"type": "node", "id": 674253738, "lat": 51.235399, "lon": 6.7931304, "tags": {"name": "X-Berg", "shop": "kiosk", "wheelchair": "no"}}, {"type": "node", "id": 676073100, "lat": 51.2192533, "lon": 6.7951172, "tags": {"air_conditioning": "yes", "brand": "ServiceStore DB", "brand:wikidata": "Q84482517", "level": "0", "name": "ServiceStore DB", "opening_hours": "Mo-Fr 06:09-20:00; Sa 07:00-19:00; Su 08:00-18:00", "shop": "kiosk", "wheelchair": "yes"}}, {"type": "node", "id": 676397467, "lat": 51.2078135, "lon": 6.8303906, "tags": {"addr:city": "D\u00fcsseldorf", "addr:country": "DE", "addr:housenumber": "33", "addr:postcode": "40231", "addr:street": "Reisholzer Stra\u00dfe", "name": "Trinkhalle", "shop": "kiosk", "wheelchair": "yes"}}, {"type": "node", "id": 719761831, "lat": 51.2276629, "lon": 6.8087761, "tags": {"check_date": "2024-08-30", "name": "Am Hermannplatz", "shop": "kiosk"}}, {"type": "node", "id": 732888428, "lat": 51.22963, "lon": 6.8103766, "tags": {"addr:city": "D\u00fcsseldorf", "addr:country": "DE", "addr:housenumber": "40", "addr:postcode": "40235", "addr:street": "Dorotheenstra\u00dfe", "check_date": "2023-09-27", "name": "Kiosk Trinkhalle", "shop": "kiosk", "source": "survey", "wheelchair": "no"}}, {"type": "node", "id": 804061314, "lat": 51.2198357, "lon": 6.7997794, "tags": {"shop": "kiosk"}}, {"type": "node", "id": 870554777, "lat": 51.2370963, "lon": 6.7934384, "tags": {"addr:city": "D\u00fcsseldorf", "addr:country": "DE", "addr:housenumber": "12", "addr:postcode": "40477", "addr:street": "Tu\u00dfmannstra\u00dfe", "name": "SOLES SHOP / DHL Paketshop 466", "opening_hours": "Mo-Tu 08:30-21:00; Fr 08:30-23:00; Sa 10:00-23:00; Su 10:30-18:00", "phone": "+49 211 54472256", "shop": "kiosk", "wheelchair": "limited"}}, {"type": "node", "id": 875700902, "lat": 51.1802198, "lon": 6.8620931, "tags": {"name": "Kiosk Schanpion", "shop": "kiosk"}}, {"type": "node", "id": 877074734, "lat": 51.1782976, "lon": 6.8566245, "tags": {"addr:city": "D\u00fcsseldorf", "addr:country": "DE", "addr:housenumber": "269", "addr:postcode": "40599", "addr:street": "Henkelstra\u00dfe", "amenity": "post_office", "brand": "Hermes", "name": "Trinkhalle Tas & Hermes-Paketshop", "post_office:type": "post_partner", "shop": "kiosk"}}, {"type": "node", "id": 883604911, "lat": 51.1790946, "lon": 6.8585547, "tags": {"name": "Trinkhalle Eritzjan", "opening_hours": "Mo-Fr 08:30-20:00", "shop": "kiosk"}}, {"type": "node", "id": 911977396, "lat": 51.1794843, "lon": 6.8311891, "tags": {"name": "Trinkhalle", "opening_hours": "Mo-Su,PH 07:00-22:00", "shop": "kiosk"}}, {"type": "node", "id": 1054205223, "lat": 51.211724, "lon": 6.8099862, "tags": {"name": "Trinkhalle", "opening_hours": "Mo-Fr 07:00-24:00, Sa,Su 08:00-24:00", "shop": "kiosk", "wheelchair": "no"}}, {"type": "node", "id": 1133007239, "lat": 51.153651, "lon": 6.876411, "tags": {"shop": "kiosk"}}, {"type": "node", "id": 1233307598, "lat": 51.233851, "lon": 6.7903787, "tags": {"name": "Pamukkale Trinkhalle", "outdoor_seating": "yes", "shop": "kiosk"}}, {"type": "node", "id": 1242458272, "lat": 51.2374118, "lon": 6.789698, "tags": {"shop": "kiosk"}}, {"type": "node", "id": 1248548266, "lat": 51.1491532, "lon": 6.8671653, "tags": {"name": "Kiosk Urdenbach", "opening_hours": "Mo-Fr 06:00-22:00; Sa 07:00-22:00; Su 08:00-22:00", "shop": "kiosk", "wheelchair": "no"}}, {"type": "node", "id": 1254380045, "lat": 51.2287852, "lon": 6.7919777, "tags": {"name": "Wehrhahn-Shop", "opening_hours": "Mo-Fr 07:00-24:00; Sa,Su 09:00-24:00", "shop": "kiosk", "wheelchair": "limited"}}, {"type": "node", "id": 1255395279, "lat": 51.2286266, "lon": 6.7927694, "tags": {"addr:city": "D\u00fcsseldorf", "addr:country": "DE", "addr:housenumber": "55", "addr:postcode": "40211", "addr:street": "Am Wehrhahn", "name": "Kasper", "shop": "kiosk"}}, {"type": "node", "id": 1255395294, "lat": 51.2285107, "lon": 6.7923282, "tags": {"addr:city": "D\u00fcsseldorf", "addr:country": "DE", "addr:housenumber": "47", "addr:postcode": "40211", "addr:street": "Am Wehrhahn", "name": "Masala Basar", "shop": "kiosk"}}, {"type": "node", "id": 1263966257, "lat": 51.2328423, "lon": 6.7911224, "tags": {"shop": "kiosk"}}, {"type": "node", "id": 1281278799, "lat": 51.2852958, "lon": 6.7844032, "tags": {"shop": "kiosk", "wheelchair": "yes"}}, {"type": "node", "id": 1297080992, "lat": 51.1764778, "lon": 6.8714805, "tags": {"addr:city": "D\u00fcsseldorf", "addr:country": "DE", "addr:housenumber": "81", "addr:postcode": "40599", "addr:street": "Hasselsstra\u00dfe", "name": "Trinkhalle/Stehcafe Papadopoulos", "opening_hours": "Mo-Sa 06:30-22:00; Su,PH 08:00-20:00", "shop": "kiosk"}}, {"type": "node", "id": 1349525382, "lat": 51.1757059, "lon": 6.8330452, "tags": {"addr:city": "D\u00fcsseldorf", "addr:country": "DE", "addr:housenumber": "5", "addr:postcode": "40589", "addr:street": "Bonner Stra\u00dfe", "check_date": "2025-01-28", "name": "Trinkhalle/Stehcafe", "shop": "kiosk", "wheelchair": "no"}}, {"type": "node", "id": 1352890695, "lat": 51.1498087, "lon": 6.883733, "tags": {"addr:city": "D\u00fcsseldorf", "addr:country": "DE", "addr:housenumber": "16", "addr:postcode": "40593", "addr:street": "Sodenstra\u00dfe", "name": "Trinkhalle Bouhamed/Hermes PaketShop", "name:de": "Trinkhalle Bouhamed, Hermes PaketShop", "opening_hours": "Mo-Sa 08:00-22:00; Su 09:00-22:00", "shop": "kiosk", "wheelchair": "limited"}}, {"type": "node", "id": 1353584983, "lat": 51.154034, "lon": 6.8926658, "tags": {"shop": "kiosk", "wheelchair": "limited"}}, {"type": "node", "id": 1354156958, "lat": 51.1879598, "lon": 6.8221772, "tags": {"name": "Trinkhalle - Kiosk - Stehcafe", "shop": "kiosk", "wheelchair": "yes"}}, {"type": "node", "id": 1354165962, "lat": 51.1892541, "lon": 6.8180671, "tags": {"check_date": "2023-07-12", "shop": "kiosk", "wheelchair": "no"}}, {"type": "node", "id": 1354643429, "lat": 51.1895151, "lon": 6.8174123, "tags": {"shop": "kiosk"}}, {"type": "node", "id": 1354670019, "lat": 51.1880043, "lon": 6.8186593, "tags": {"name": "Kiosk Dimu", "opening_hours": "Mo-Fr 07:00-22:00; Sa 07:00-22:00; Su,PH 09:00-22:00", "shop": "kiosk", "wheelchair": "yes"}}, {"type": "node", "id": 1354716656, "lat": 51.186609, "lon": 6.8263718, "tags": {"name": "Rosi's Kiosk", "shop": "kiosk"}}, {"type": "node", "id": 1354795146, "lat": 51.1943346, "lon": 6.8359235, "tags": {"shop": "kiosk", "wheelchair": "no"}}, {"type": "node", "id": 1356359977, "lat": 51.1920112, "lon": 6.8145345, "tags": {"name": "Kiosk Eis-Kaffee", "shop": "kiosk", "wheelchair": "yes"}}, {"type": "node", "id": 1357467056, "lat": 51.1865545, "lon": 6.8195801, "tags": {"addr:city": "D\u00fcsseldorf", "addr:country": "DE", "addr:housenumber": "208", "addr:postcode": "40591", "addr:street": "K\u00f6lner Landstra\u00dfe", "name": "Snack-Knacker", "opening_hours": "24/7", "shop": "kiosk"}}, {"type": "node", "id": 1357489889, "lat": 51.1826853, "lon": 6.8232572, "tags": {"shop": "kiosk", "wheelchair": "yes"}}, {"type": "node", "id": 1357489890, "lat": 51.1827286, "lon": 6.8231974, "tags": {"name": "Trinkhalle & Stehcafe New York", "shop": "kiosk"}}, {"type": "node", "id": 1357489902, "lat": 51.1836681, "lon": 6.8219476, "tags": {"name": "Fortuna Trinkhalle", "shop": "kiosk", "wheelchair": "limited"}}, {"type": "node", "id": 1357489954, "lat": 51.1793253, "lon": 6.8278964, "tags": {"name": "Tabak B\u00f6rse", "opening_hours": "Mo-Sa 08:00-18:30", "shop": "kiosk"}}, {"type": "node", "id": 1384468694, "lat": 51.3329059, "lon": 6.7885748, "tags": {"shop": "kiosk", "wheelchair": "yes"}}, {"type": "node", "id": 1396832873, "lat": 51.2138607, "lon": 6.8232703, "tags": {"name": "Stehcaf\u00e9", "shop": "kiosk"}}, {"type": "node", "id": 1424550196, "lat": 51.2178981, "lon": 6.7972565, "tags": {"check_date": "2025-05-30", "check_date:opening_hours": "2025-05-30", "name": "Kiosk", "opening_hours": "Mo-Fr 08:00-22:00; Sa 08:00-22:00; Su 09:00-22:00", "shop": "kiosk", "wheelchair": "yes"}}, {"type": "node", "id": 1501785136, "lat": 51.2051374, "lon": 6.7766089, "tags": {"name": "Kiosk 21", "shop": "kiosk", "wheelchair": "no"}}, {"type": "node", "id": 1510110180, "lat": 51.2367793, "lon": 6.7897683, "tags": {"shop": "kiosk"}}, {"type": "node", "id": 1544063206, "lat": 51.1785041, "lon": 6.8737372, "tags": {"addr:city": "D\u00fcsseldorf", "addr:country": "DE", "addr:housenumber": "4", "addr:postcode": "40599", "addr:street": "T\u00f6nisstra\u00dfe", "shop": "kiosk", "wheelchair": "no"}}, {"type": "node", "id": 1544128843, "lat": 51.2100998, "lon": 6.8605487, "tags": {"addr:housenumber": "214", "addr:street": "Vennhauser Allee", "name": "Vennhauser Kiosk", "opening_hours": "Mo-Sa 08:00-22:00; Su 09:00-22:00", "post_office:service_provider": "Hermes", "shop": "kiosk"}}, {"type": "node", "id": 1544173969, "lat": 51.1909828, "lon": 6.8597634, "tags": {"addr:city": "D\u00fcsseldorf", "addr:country": "DE", "addr:housenumber": "110", "addr:postcode": "40229", "addr:street": "Deutzer Stra\u00dfe", "name": "Deutzer Kiosk", "shop": "kiosk"}}, {"type": "node", "id": 1544556051, "lat": 51.2219572, "lon": 6.7868305, "tags": {"noname": "yes", "shop": "kiosk", "source": "survey"}}, {"type": "node", "id": 1545665942, "lat": 51.1990206, "lon": 6.8462601, "tags": {"shop": "kiosk", "wheelchair": "limited"}}, {"type": "node", "id": 1547829206, "lat": 51.1788802, "lon": 6.8277995, "tags": {"name": "Kiosk 24", "opening_hours": "Mo-Su,PH 07:00-22:00", "shop": "kiosk"}}, {"type": "node", "id": 1547829416, "lat": 51.180079, "lon": 6.8273654, "tags": {"addr:city": "D\u00fcsseldorf", "addr:country": "DE", "addr:housenumber": "350a", "addr:postcode": "40589", "addr:street": "K\u00f6lner Landstra\u00dfe", "amenity": "fuel", "brand": "SB Tank", "brand:wikidata": "Q96758296", "compressed_air": "yes", "name": "SB tank", "shop": "kiosk", "wheelchair": "yes"}}, {"type": "node", "id": 1550221950, "lat": 51.2088138, "lon": 6.7829464, "tags": {"coffee": "yes", "name": "Happy Shop", "shop": "kiosk", "tobacco": "yes", "wheelchair": "yes"}}, {"type": "node", "id": 1550222017, "lat": 51.2124624, "lon": 6.7842899, "tags": {"opening_hours": "Mo-Fr 06:00-23:00; Sa 07:00-23:00; Su 09:00-23:00", "shop": "kiosk", "source": "survey", "survey:date": "2020-03-14", "wheelchair": "yes"}}, {"type": "node", "id": 1551598852, "lat": 51.2317137, "lon": 6.7565432, "tags": {"name": "Trinkhalle Radisch", "opening_hours": "Mo-Fr 07:00-22:00; Sa 08:00-22:00; Su 09:00-22:00", "shop": "kiosk", "wheelchair": "limited"}}, {"type": "node", "id": 1567485529, "lat": 51.2154282, "lon": 6.7990888, "tags": {"name": "Trinkhalle", "shop": "kiosk", "wheelchair": "limited"}}, {"type": "node", "id": 1568403527, "lat": 51.2817418, "lon": 6.7946652, "tags": {"addr:city": "D\u00fcsseldorf", "addr:country": "DE", "addr:housenumber": "2", "addr:postcode": "40472", "addr:street": "Volkardeyer Weg", "amenity": "fuel", "brand": "Esso", "fuel:diesel": "yes", "fuel:e10": "yes", "fuel:octane_95": "yes", "fuel:octane_98": "yes", "shop": "kiosk", "wheelchair": "limited"}}, {"type": "node", "id": 1568435623, "lat": 51.2626996, "lon": 6.8093285, "tags": {"addr:city": "D\u00fcsseldorf", "addr:country": "DE", "addr:housenumber": "8", "addr:postcode": "40472", "addr:street": "Rather Kreuzweg", "check_date": "2025-04-18", "level": "0", "name": "Candy Shop / Hermes Packetshop", "opening_hours": "Mo-Th 13:00-22:00; Fr,Sa 13:00-23:00; Su 13:00-22:00", "post_office": "yes", "post_office:type": "parcel_delivery", "shop": "kiosk", "wheelchair": "no"}}, {"type": "node", "id": 1570453905, "lat": 51.2252314, "lon": 6.7732162, "tags": {"addr:city": "D\u00fcsseldorf", "addr:country": "DE", "addr:housenumber": "16", "addr:postcode": "40213", "addr:street": "Flinger Stra\u00dfe", "name": "Beckmann", "opening_hours": "Mo-Su,PH 08:00-20:30", "shop": "kiosk", "wheelchair": "no"}}, {"type": "node", "id": 1577234907, "lat": 51.226544, "lon": 6.7757351, "tags": {"addr:city": "D\u00fcsseldorf", "addr:country": "DE", "addr:housenumber": "54", "addr:postcode": "40213", "addr:street": "Bolkerstra\u00dfe", "check_date": "2025-03-30", "name": "Bolker 54", "shop": "kiosk", "wheelchair": "limited"}}, {"type": "node", "id": 1577235188, "lat": 51.2274559, "lon": 6.7729894, "tags": {"shop": "kiosk", "wheelchair": "no"}}, {"type": "node", "id": 1577235776, "lat": 51.2261438, "lon": 6.775714, "tags": {"name": "Multi-Kult Store", "opening_hours": "24/7", "shop": "kiosk", "wheelchair": "yes"}}, {"type": "node", "id": 1578681468, "lat": 51.2448481, "lon": 6.7829073, "tags": {"name": "Treff 27", "opening_hours": "Mo-Fr 06:00-18:00, Sa 07:00-14:00", "shop": "kiosk", "wheelchair": "yes"}}, {"type": "node", "id": 1578706050, "lat": 51.2416695, "lon": 6.7837452, "tags": {"shop": "kiosk"}}, {"type": "node", "id": 1578706136, "lat": 51.2429915, "lon": 6.7873581, "tags": {"addr:city": "D\u00fcsseldorf", "addr:country": "DE", "addr:housenumber": "40", "addr:postcode": "40477", "addr:street": "J\u00fclicher Stra\u00dfe", "check_date": "2025-04-07", "description": "Lieferzeiten 18:00-24:00", "name": "Markthalle", "opening_hours": "Mo-Fr 07:00-24:00; Sa 08:00-24:00; Su 09:00-24:00", "phone": "+49 211-54410504", "shop": "kiosk", "website": "https://www.markthalle-d\u00fcsseldorf.de/", "wheelchair": "no", "wheelchair:description": "Stufe am Eingang zu hoch"}}, {"type": "node", "id": 1578706139, "lat": 51.2437366, "lon": 6.7868401, "tags": {"shop": "kiosk", "wheelchair": "yes"}}, {"type": "node", "id": 1579577697, "lat": 51.2425474, "lon": 6.7897697, "tags": {"shop": "kiosk", "wheelchair": "yes"}}, {"type": "node", "id": 1581585214, "lat": 51.2454254, "lon": 6.7897708, "tags": {"check_date": "2023-04-12", "name": "Steh-Caf\u00e9 Sommereck", "opening_hours": "Mo-Fr 06:00-24:00, Sa,Su,PH 07:00-24:00", "shop": "kiosk", "wheelchair": "no"}}, {"type": "node", "id": 1581611164, "lat": 51.2453956, "lon": 6.7902878, "tags": {"shop": "kiosk", "wheelchair": "yes"}}, {"type": "node", "id": 1587586320, "lat": 51.2406674, "lon": 6.8019055, "tags": {"addr:city": "D\u00fcsseldorf", "addr:country": "DE", "addr:housenumber": "16", "addr:postcode": "40239", "addr:street": "Brehmstra\u00dfe", "name": "Kiosk & Trinkhalle", "shop": "kiosk"}}, {"type": "node", "id": 1592861441, "lat": 51.2316295, "lon": 6.8092271, "tags": {"name": "Coffee Beans", "shop": "kiosk", "wheelchair": "no"}}, {"type": "node", "id": 1596480265, "lat": 51.2128572, "lon": 6.7528197, "tags": {"addr:city": "D\u00fcsseldorf", "addr:country": "DE", "addr:housenumber": "95", "addr:postcode": "40219", "addr:street": "Gladbacher Stra\u00dfe", "name": "Hafenkiosk", "opening_hours": "Mo-Fr 06:00-22:00, Sa 10:00-23:00, Su 10:00-21:00", "shop": "kiosk", "wheelchair": "yes"}}, {"type": "node", "id": 1598279906, "lat": 51.2503873, "lon": 6.8025791}, {"type": "node", "id": 1599931800, "lat": 51.2430228, "lon": 6.8154248, "tags": {"name": "am Rondell", "shop": "kiosk", "wheelchair": "limited"}}, {"type": "node", "id": 1601138683, "lat": 51.2457266, "lon": 6.8011656, "tags": {"shop": "kiosk"}}, {"type": "node", "id": 1606677030, "lat": 51.205944, "lon": 6.8290047, "tags": {"addr:city": "D\u00fcsseldorf", "addr:country": "DE", "addr:housenumber": "1a", "addr:postcode": "40231", "addr:street": "K\u00fcndgensweg", "name": "Trinkhalle", "opening_hours": "Mo-Su 06:00-22:00", "shop": "kiosk", "wheelchair": "yes"}}, {"type": "node", "id": 1609901104, "lat": 51.2246411, "lon": 6.7724879, "tags": {"addr:city": "D\u00fcsseldorf", "addr:country": "DE", "addr:housenumber": "10", "addr:postcode": "40213", "addr:street": "Berger Stra\u00dfe", "check_date": "2024-12-31", "indoor_seating": "yes", "name": "Trinkhalle", "opening_hours": "Mo-Th 11:00-24:00, Fr-Su 11:00-02:00", "outdoor_seating": "yes", "payment:cash": "yes", "payment:credit_cards": "yes", "payment:debit_cards": "yes", "shop": "kiosk", "wheelchair": "yes"}}, {"type": "node", "id": 1609901134, "lat": 51.2261344, "lon": 6.7727984, "tags": {"addr:city": "D\u00fcsseldorf", "addr:country": "DE", "addr:housenumber": "8", "addr:postcode": "40213", "addr:street": "Bolkerstra\u00dfe", "shop": "kiosk", "wheelchair": "yes"}}, {"type": "node", "id": 1620537070, "lat": 51.2144682, "lon": 6.7562403, "tags": {"addr:city": "D\u00fcsseldorf", "addr:country": "DE", "addr:housenumber": "36", "addr:postcode": "40219", "addr:street": "Hammer Stra\u00dfe", "name": "Kiosk am Medienhafen", "shop": "kiosk", "wheelchair": "no"}}, {"type": "node", "id": 1620537085, "lat": 51.2138917, "lon": 6.7560172, "tags": {"name": "Kiosk am Medienhafen", "shop": "kiosk", "wheelchair": "no"}}, {"type": "node", "id": 1630049170, "lat": 51.21409, "lon": 6.7968316, "tags": {"name": "(N)", "shop": "kiosk", "wheelchair": "limited"}}, {"type": "node", "id": 1644361360, "lat": 51.2330102, "lon": 6.7847993, "tags": {"shop": "kiosk"}}, {"type": "node", "id": 1658610604, "lat": 51.1979006, "lon": 6.7699018, "tags": {"name": "Trinkhalle", "shop": "kiosk", "wheelchair": "limited"}}, {"type": "node", "id": 1673772098, "lat": 51.2763546, "lon": 6.7846905, "tags": {"name": "Trinkhalle Schima", "shop": "kiosk"}}, {"type": "node", "id": 1693838179, "lat": 51.2489169, "lon": 6.7782907, "tags": {"name": "Lieblingsb\u00fcdchen", "shop": "kiosk"}}, {"type": "node", "id": 1700708634, "lat": 51.2167858, "lon": 6.7832484, "tags": {"check_date:opening_hours": "2024-04-18", "name": "Trinkhalle", "opening_hours": "Mo-Su 06:00-24:00", "payment:credit_cards": "no", "payment:debit_cards": "yes", "shop": "kiosk"}}, {"type": "node", "id": 1700751041, "lat": 51.2089474, "lon": 6.8082002, "tags": {"shop": "kiosk"}}, {"type": "node", "id": 1782742941, "lat": 51.2277763, "lon": 6.804862, "tags": {"name": "Berry", "shop": "kiosk"}}, {"type": "node", "id": 1828375117, "lat": 51.2123102, "lon": 6.7737052, "tags": {"addr:city": "D\u00fcsseldorf", "addr:country": "DE", "addr:housenumber": "27a", "addr:postcode": "40217", "addr:street": "Kronenstra\u00dfe", "name": "Steh Kaffee Bella", "opening_hours": "Mo-Su 08:00-22:00", "shop": "kiosk", "wheelchair": "limited"}}, {"type": "node", "id": 1828464300, "lat": 51.2335219, "lon": 6.7714098, "tags": {"addr:city": "D\u00fcsseldorf", "addr:country": "DE", "addr:housenumber": "27", "addr:postcode": "40479", "addr:street": "Joseph-Beuys-Ufer", "contact:facebook": "https://www.facebook.com/pages/Fortuna-B\u00fcdchen/130598280357983", "name": "D\u00fcsseldorfer Fan-Buud", "shop": "kiosk", "wheelchair": "yes"}}, {"type": "node", "id": 1871498388, "lat": 51.2162733, "lon": 6.8023214, "tags": {"addr:city": "D\u00fcsseldorf", "addr:country": "DE", "addr:housenumber": "37", "addr:postcode": "40227", "addr:street": "Bogenstra\u00dfe", "brand": "Lotto", "check_date": "2025-05-29", "name": "Lotto", "opening_hours": "Mo-Fr 06:00-19:00; Sa 07:00-15:00", "shop": "kiosk", "wheelchair": "limited"}}, {"type": "node", "id": 1891224518, "lat": 51.2353581, "lon": 6.7829559, "tags": {"name": "Bonbon", "shop": "kiosk"}}, {"type": "node", "id": 1917221412, "lat": 51.1737552, "lon": 6.8303362, "tags": {"addr:city": "D\u00fcsseldorf", "addr:country": "DE", "addr:housenumber": "27", "addr:postcode": "40589", "addr:street": "Itterstra\u00dfe", "name": "Kiosk & Hermes-Paketshop", "opening_hours:signed": "no", "shop": "kiosk", "wheelchair": "no"}}, {"type": "node", "id": 2002387167, "lat": 51.236405, "lon": 6.7814119, "tags": {"addr:city": "D\u00fcsseldorf", "addr:country": "DE", "addr:housenumber": "32-36", "addr:postcode": "40477", "addr:street": "Duisburger Stra\u00dfe", "amenity": "post_office", "brand": "Deutsche Post / DHL", "name": "Kiosk - Post/DHL", "opening_hours": "Mo-Fr 08:00-19:00; Sa 08:00-16:00", "operator": "Lottoannahme S. Mesgarzadeh", "shop": "kiosk", "wheelchair": "yes"}}, {"type": "node", "id": 2020181475, "lat": 51.1736067, "lon": 6.8316006, "tags": {"name": "Caf\u00e9 Bar", "opening_hours:signed": "no", "shop": "kiosk", "wheelchair": "no"}}, {"type": "node", "id": 2264681530, "lat": 51.2285715, "lon": 6.8260799, "tags": {"shop": "kiosk"}}, {"type": "node", "id": 2281186939, "lat": 51.2278473, "lon": 6.8326206, "tags": {"shop": "kiosk"}}, {"type": "node", "id": 2291280693, "lat": 51.2154676, "lon": 6.7766387, "tags": {"check_date": "2025-07-01", "name": "Tabac & Co", "opening_hours": "Mo-Fr 07:30-19:00; Sa 08:00-16:00", "shop": "kiosk", "source": "survey", "wheelchair": "yes"}}, {"type": "node", "id": 2291722073, "lat": 51.214346, "lon": 6.7662083, "tags": {"name": "Der Kiosk Schnell & Freundlich", "shop": "kiosk", "wheelchair": "no"}}, {"type": "node", "id": 2302560674, "lat": 51.2277324, "lon": 6.7938294, "tags": {"addr:city": "D\u00fcsseldorf", "addr:country": "DE", "addr:housenumber": "26", "addr:postcode": "40211", "addr:street": "Gerresheimer Stra\u00dfe", "shop": "kiosk"}}, {"type": "node", "id": 2303546461, "lat": 51.2302115, "lon": 6.8010097, "tags": {"shop": "kiosk", "wheelchair": "yes"}}, {"type": "node", "id": 2312799066, "lat": 51.212071, "lon": 6.802024, "tags": {"atm": "no", "name": "Stehcaf\u00e9", "opening_hours": "Mo-Su 07:00-01:00", "payment:credit_cards": "yes", "payment:debit_cards": "yes", "shop": "kiosk", "toilets:wheelchair": "no", "wheelchair": "limited"}}, {"type": "node", "id": 2356667707, "lat": 51.2425308, "lon": 6.7816279, "tags": {"addr:city": "D\u00fcsseldorf", "addr:country": "DE", "addr:housenumber": "6", "addr:postcode": "40476", "addr:street": "Ro\u00dfstra\u00dfe", "check_date": "2018-07-19", "description": "Lieferzeiten 18:00-24:00", "name": "Markthalle", "opening_hours": "Mo-Fr 7:00-24:00; Sa 8:00-24:00; Su 9:00-24:00", "shop": "kiosk", "website": "https://www.markthalle-d\u00fcsseldorf.de/", "wheelchair": "yes"}}, {"type": "node", "id": 2402779463, "lat": 51.1873432, "lon": 6.8190733, "tags": {"addr:city": "D\u00fcsseldorf", "addr:country": "DE", "addr:housenumber": "196", "addr:postcode": "40591", "addr:street": "K\u00f6lner Landstra\u00dfe", "name:signed": "no", "shop": "kiosk"}}, {"type": "node", "id": 2420208219, "lat": 51.2301865, "lon": 6.8240771, "tags": {"shop": "kiosk"}}, {"type": "node", "id": 2494207770, "lat": 51.215875, "lon": 6.7964257, "tags": {"name": "Caf\u00e9 101", "note": "Tr\u00e4gt keinen Namen", "shop": "kiosk"}}, {"type": "node", "id": 2494236964, "lat": 51.2125006, "lon": 6.7744445, "tags": {"addr:city": "D\u00fcsseldorf", "addr:country": "DE", "addr:housenumber": "46", "addr:postcode": "40217", "addr:street": "Kirchfeldstra\u00dfe", "fixme": "\u00d6ffnungszeiten fehlen", "name": "Limon", "shop": "kiosk"}}, {"type": "node", "id": 2541705918, "lat": 51.2143462, "lon": 6.8016455, "tags": {"name": "Eller Kiosk", "shop": "kiosk"}}, {"type": "node", "id": 2577998396, "lat": 51.2608645, "lon": 6.8091778, "tags": {"addr:city": "D\u00fcsseldorf", "addr:country": "DE", "addr:housenumber": "490", "addr:postcode": "40470", "addr:street": "M\u00fcnsterstra\u00dfe", "check_date": "2025-04-07", "name": "B\u00fcdchen - bei Conny und Willi", "shop": "kiosk", "wheelchair": "yes"}}, {"type": "node", "id": 2930839303, "lat": 51.210995, "lon": 6.781698, "tags": {"addr:city": "D\u00fcsseldorf", "addr:country": "DE", "addr:housenumber": "220", "addr:postcode": "40215", "addr:street": "Bilker Allee", "check_date": "2025-02-22", "name": "Trinkhalle Seng\u00fcl", "opening_hours": "Mo-Fr 5:30-0:00; Sa 6:00-0:00; Su 9:00-0:00", "shop": "kiosk", "wheelchair": "no"}}, {"type": "node", "id": 2930884517, "lat": 51.2115983, "lon": 6.7824255, "tags": {"addr:city": "D\u00fcsseldorf", "addr:country": "DE", "addr:housenumber": "99", "addr:postcode": "40215", "addr:street": "Corneliusstra\u00dfe", "shop": "kiosk"}}, {"type": "node", "id": 2939162450, "lat": 51.2022924, "lon": 6.7804156, "tags": {"check_date": "2024-10-24", "name": "kio", "shop": "kiosk", "wheelchair": "no"}}, {"type": "node", "id": 2941864474, "lat": 51.2107713, "lon": 6.7801935, "tags": {"check_date": "2025-02-22", "name": "Trinkhalle", "shop": "kiosk"}}, {"type": "node", "id": 2952531733, "lat": 51.2528298, "lon": 6.7593348, "tags": {"addr:city": "D\u00fcsseldorf", "addr:country": "DE", "addr:housenumber": "300", "addr:postcode": "40474", "addr:street": "Kaiserswerther Stra\u00dfe", "name": "Trinkhalle", "shop": "kiosk", "wheelchair": "yes"}}, {"type": "node", "id": 2978040509, "lat": 51.2479286, "lon": 6.7967218, "tags": {"addr:city": "D\u00fcsseldorf", "addr:country": "DE", "addr:housenumber": "245", "addr:postcode": "40239", "addr:street": "M\u00fcnsterstra\u00dfe", "amenity": "fuel", "brand": "Esso", "brand:wikidata": "Q867662", "brand:wikipedia": "en:Esso", "compressed_air": "yes", "name": "ESSO D\u00fcsseltal", "shop": "kiosk"}}, {"type": "node", "id": 2986059623, "lat": 51.2186467, "lon": 6.7889351, "tags": {"addr:city": "D\u00fcsseldorf", "addr:country": "DE", "addr:housenumber": "10", "addr:postcode": "40215", "addr:street": "Mintropstra\u00dfe", "name": "Onkel Roushdys Shisha Laden", "shop": "kiosk"}}, {"type": "node", "id": 2989939455, "lat": 51.2610898, "lon": 6.8035863, "tags": {"addr:city": "D\u00fcsseldorf", "addr:country": "DE", "addr:housenumber": "13d", "addr:postcode": "40470", "addr:street": "Scheffelstra\u00dfe", "check_date": "2025-04-18", "name:signed": "no", "shop": "kiosk"}}, {"type": "node", "id": 3202951405, "lat": 51.2230302, "lon": 6.7825948}, {"type": "node", "id": 3265889248, "lat": 51.2083864, "lon": 6.7403574, "tags": {"addr:city": "D\u00fcsseldorf", "addr:country": "DE", "addr:housenumber": "119", "addr:postcode": "40221", "addr:street": "Hammer Dorfstra\u00dfe", "check_date": "2025-04-10", "contact:phone": "+49 211 3036012", "name": "Tabak-B\u00f6rse", "operator": "Kai Gummersbach", "shop": "kiosk", "wheelchair": "limited"}}, {"type": "node", "id": 3280560363, "lat": 51.2085249, "lon": 6.7690564}, {"type": "node", "id": 3280560364, "lat": 51.20857, "lon": 6.7690288}, {"type": "node", "id": 3280560365, "lat": 51.2085368, "lon": 6.7691059}, {"type": "node", "id": 3280560367, "lat": 51.2085611, "lon": 6.7689917}, {"type": "node", "id": 3280560369, "lat": 51.2085904, "lon": 6.7689738}, {"type": "node", "id": 3280560370, "lat": 51.2086112, "lon": 6.7690604}, {"type": "node", "id": 3329688962, "lat": 51.2056181, "lon": 6.7681651, "tags": {"name": "Trinkhalle", "opening_hours": "Mo-Fr 07:30-20:00; Sa 08:00-20:00", "shop": "kiosk"}}, {"type": "node", "id": 3329783978, "lat": 51.2356723, "lon": 6.782095, "tags": {"addr:city": "D\u00fcsseldorf", "addr:country": "DE", "addr:housenumber": "42", "addr:postcode": "40477", "addr:street": "Duisburger Stra\u00dfe", "name": "Kiosk Lenati", "shop": "kiosk"}}, {"type": "node", "id": 3409365872, "lat": 51.2502955, "lon": 6.7909271, "tags": {"name": "Tabac & Co", "shop": "kiosk"}}, {"type": "node", "id": 3449095793, "lat": 51.175305, "lon": 6.8323154, "tags": {"name": "Schmitze-B\u00fcdchen", "shop": "kiosk"}}, {"type": "node", "id": 3458870399, "lat": 51.2377174, "lon": 6.7793028, "tags": {"addr:city": "D\u00fcsseldorf", "addr:country": "DE", "addr:housenumber": "44", "addr:postcode": "40477", "addr:street": "Nordstra\u00dfe", "check_date": "2018-07-16", "name": "Tabac & Co", "shop": "kiosk", "source": "https://www.lotto-tabak.de/standort/nordstr-44-40477-dusseldorf-hartmut-pott-tabakwaren-und-lotto.html", "wheelchair": "yes"}}, {"type": "node", "id": 3458892355, "lat": 51.2143966, "lon": 6.7754921, "tags": {"addr:city": "D\u00fcsseldorf", "addr:country": "DE", "addr:housenumber": "50", "addr:postcode": "40217", "addr:street": "Elisabethstra\u00dfe", "brand": "City Kiosk", "name": "City Kiosk", "shop": "kiosk", "wheelchair": "no"}}, {"type": "node", "id": 3491635148, "lat": 51.2690897, "lon": 6.7743085, "tags": {"shop": "kiosk", "wheelchair": "yes"}}, {"type": "node", "id": 3515330943, "lat": 51.2068363, "lon": 6.7779252, "tags": {"addr:city": "D\u00fcsseldorf", "addr:country": "DE", "addr:housenumber": "15", "addr:postcode": "40223", "addr:street": "Brunnenstra\u00dfe", "check_date": "2025-07-09", "name": "Markt-Halle", "opening_hours": "Mo-Sa 06:00-24:00", "shop": "kiosk"}}, {"type": "node", "id": 3518762836, "lat": 51.2259906, "lon": 6.7757281, "tags": {"addr:city": "D\u00fcsseldorf", "addr:country": "DE", "addr:housenumber": "46", "addr:postcode": "40213", "addr:street": "Hunsr\u00fcckenstra\u00dfe", "name": "B\u00fcdchen", "shop": "kiosk", "wheelchair": "yes"}}, {"type": "node", "id": 3544649152, "lat": 51.2666383, "lon": 6.8718775, "tags": {"addr:city": "D\u00fcsseldorf", "addr:country": "DE", "addr:housenumber": "1", "addr:postcode": "40629", "addr:street": "Am Schultersbusch", "name": "Kiosk Backshop", "shop": "kiosk", "wheelchair": "no"}}, {"type": "node", "id": 3566537975, "lat": 51.2128807, "lon": 6.7688011, "tags": {"name": "Trinkhalle", "shop": "kiosk", "wheelchair": "no"}}, {"type": "node", "id": 3571004906, "lat": 51.2680055, "lon": 6.7866467, "tags": {"shop": "kiosk"}}, {"type": "node", "id": 3572369593, "lat": 51.251122, "lon": 6.7814522, "tags": {"addr:city": "D\u00fcsseldorf", "addr:country": "DE", "addr:housenumber": "126", "addr:postcode": "40476", "addr:street": "Ulmenstra\u00dfe", "check_date": "2020-10-29", "shop": "kiosk", "wheelchair": "no"}}, {"type": "node", "id": 3572470344, "lat": 51.2480516, "lon": 6.7834222, "tags": {"addr:city": "D\u00fcsseldorf", "addr:country": "DE", "addr:housenumber": "63", "addr:postcode": "40476", "addr:street": "Ulmenstra\u00dfe", "check_date": "2018-11-16", "name": "Ulmen - Kiosk und Stehcafe", "shop": "kiosk", "source": "https://branchenbuch.meinestadt.de/duesseldorf/company/12036438"}}, {"type": "node", "id": 3578665447, "lat": 51.2401733, "lon": 6.7813419, "tags": {"check_date": "2025-04-23", "name": "Kiosk Dreieck", "shop": "kiosk"}}, {"type": "node", "id": 3578665449, "lat": 51.2399827, "lon": 6.7810952, "tags": {"addr:city": "D\u00fcsseldorf", "addr:country": "DE", "addr:housenumber": "1", "addr:postcode": "40477", "addr:street": "Mauerstra\u00dfe", "name": "Kiosk", "shop": "kiosk"}}, {"type": "node", "id": 3578682357, "lat": 51.2395985, "lon": 6.7806704, "tags": {"opening_hours": "Mo-Fr 08:00-19:00, Sa 08:00-16:00", "operator": "Dieter Ullsperger", "phone": "+49 211 4983293", "shop": "kiosk"}}, {"type": "node", "id": 3608982666, "lat": 51.2096415, "lon": 6.7934081, "tags": {"addr:city": "D\u00fcsseldorf", "addr:country": "DE", "addr:housenumber": "37", "addr:postcode": "40227", "addr:street": "Volksgartenstra\u00dfe", "check_date": "2025-02-21", "check_date:opening_hours": "2025-02-21", "name": "Kiosk am Volksgarten", "opening_hours": "Mo-Sa 06:00-23:00; Su 09:00-23:00", "shop": "kiosk", "wheelchair": "yes"}}, {"type": "node", "id": 3625302465, "lat": 51.2322128, "lon": 6.7206865, "tags": {"addr:city": "D\u00fcsseldorf", "addr:country": "DE", "addr:housenumber": "35", "addr:postcode": "40549", "addr:street": "Nikolaus-Knopp-Platz", "amenity": "cafe", "diet:vegetarian": "yes", "name": "Tazzina", "opening_hours": "PH,Mo-Su 11:00-22:00", "shop": "kiosk", "website": "https://tazzina.jimdo.com/"}}, {"type": "node", "id": 3638793211, "lat": 51.1961814, "lon": 6.8163699, "tags": {"amenity": "post_office", "name": "Kiosk - Post/DHL", "opening_hours": "Mo-Sa 08:00-18:00", "shop": "kiosk"}}, {"type": "node", "id": 3676766955, "lat": 51.3010957, "lon": 6.7377023, "tags": {"addr:city": "D\u00fcsseldorf", "addr:country": "DE", "addr:housenumber": "61", "addr:postcode": "40489", "addr:street": "Kaiserswerther Markt", "contact:phone": "+49 211 402646", "disused:shop": "yes", "name": "Tappert's", "opening_hours": "Tu-Fr 08:30-18:00; Sa 08:30-17:00; Su 11:00-17:00", "operator": "Haci Ceyhan", "post_office": "post_partner", "post_office:brand": "Hermes PaketShop", "post_office:brand:wikidata": "Q105702843", "post_office:service_provider": "Hermes Group", "ref:Hermes": "675032", "shop": "kiosk", "wheelchair": "no"}}, {"type": "node", "id": 3761444655, "lat": 51.2271883, "lon": 6.6980593, "tags": {"addr:city": "D\u00fcsseldorf", "addr:country": "DE", "addr:housenumber": "28", "addr:postcode": "40549", "addr:street": "Burgunderstra\u00dfe", "amenity": "post_office", "brand": "Deutsche Post", "operator": "Deutsche Post", "operator:wikidata": "Q157645", "shop": "kiosk"}}, {"type": "node", "id": 3771624289, "lat": 51.2326107, "lon": 6.7208434, "tags": {"name": "Tabak-B\u00f6rse", "shop": "kiosk"}}, {"type": "node", "id": 3910381258, "lat": 51.2304525, "lon": 6.7511041, "tags": {"name": "Trinkhalle", "opening_hours": "Mo-Su 10:00-23:00", "phone": "+49211555124", "shop": "kiosk", "wheelchair": "yes"}}, {"type": "node", "id": 3925358143, "lat": 51.2311553, "lon": 6.7468668, "tags": {"shop": "kiosk", "wheelchair": "no"}}, {"type": "node", "id": 4017820831, "lat": 51.2503284, "lon": 6.8025686}, {"type": "node", "id": 4017820833, "lat": 51.2503343, "lon": 6.8026025}, {"type": "node", "id": 4017820836, "lat": 51.2503814, "lon": 6.8025452}, {"type": "node", "id": 4082469924, "lat": 51.2157709, "lon": 6.7929163, "tags": {"name": "Trinkhalle & Stehcaf\u00e9", "shop": "kiosk"}}, {"type": "node", "id": 4209331312, "lat": 51.2206035, "lon": 6.8656362, "tags": {"addr:city": "D\u00fcsseldorf", "addr:country": "DE", "addr:housenumber": "61", "addr:postcode": "40625", "addr:street": "Im Br\u00fchl", "shop": "kiosk"}}, {"type": "node", "id": 4415422901, "lat": 51.226782, "lon": 6.7765423, "tags": {"name": "Kiosk", "shop": "kiosk"}}, {"type": "node", "id": 4552301648, "lat": 51.2488119, "lon": 6.7780826, "tags": {"addr:city": "D\u00fcsseldorf", "addr:country": "DE", "addr:housenumber": "15", "addr:postcode": "40476", "addr:street": "Frankenstra\u00dfe", "contact:phone": "+49 211 4709102", "name": "Trinkhalle Newidimenko", "opening_hours": "Mo-Fr 07:00-21:00; Sa 10:00-21:00; Su 09:00-21:00", "shop": "kiosk"}}, {"type": "node", "id": 4733985834, "lat": 51.2105346, "lon": 6.7768474, "tags": {"name": "AK", "shop": "kiosk"}}, {"type": "node", "id": 4733994195, "lat": 51.2110022, "lon": 6.7765081, "tags": {"check_date": "2025-04-04", "name": "Orchidee Kiosk", "shop": "kiosk"}}, {"type": "node", "id": 4742879710, "lat": 51.2285101, "lon": 6.6977327, "tags": {"addr:city": "D\u00fcsseldorf", "addr:country": "DE", "addr:housenumber": "12", "addr:postcode": "40549", "addr:street": "Eupener Stra\u00dfe", "amenity": "post_office", "brand": "Hermes", "operator": "Hermes", "operator:wikidata": "Q1613532", "shop": "kiosk"}}, {"type": "node", "id": 4745201264, "lat": 51.1938313, "lon": 6.8851051, "tags": {"addr:city": "D\u00fcsseldorf", "addr:country": "DE", "addr:housenumber": "310", "addr:postcode": "40627", "addr:street": "Am Kleinforst", "amenity": "fast_food", "contact:email": "info@kioskamsuedstrand.de", "contact:fax": "+49 211 91374956", "contact:phone": "+49 211 91313091", "contact:website": "http://www.kioskamsuedstrand.de", "cuisine": "hot_dog", "diet:vegetarian": "yes", "name": "Strandcafe", "opening_hours": "Mo-Fr 10:00-20:30; Sa,Su,PH 09:00-20:30", "shop": "kiosk", "takeaway": "only", "wheelchair": "yes"}}, {"type": "node", "id": 4760490321, "lat": 51.2184529, "lon": 6.7767712, "tags": {"name": "Kiosk GO", "shop": "kiosk", "source": "survey"}}, {"type": "node", "id": 4767959029, "lat": 51.2184094, "lon": 6.7771107, "tags": {"name": "Shop & Go", "shop": "kiosk"}}, {"type": "node", "id": 4779858948, "lat": 51.2286688, "lon": 6.7752757, "tags": {"name": "Bier Paradies", "shop": "kiosk"}}, {"type": "node", "id": 4779858976, "lat": 51.223272, "lon": 6.7742588, "tags": {"shop": "kiosk", "wheelchair": "yes"}}, {"type": "node", "id": 4779861107, "lat": 51.2233344, "lon": 6.7743371, "tags": {"shop": "kiosk"}}, {"type": "node", "id": 4782903278, "lat": 51.2109165, "lon": 6.7707395, "tags": {"check_date:opening_hours": "2024-10-26", "name": "Happy Shop", "opening_hours:signed": "no", "post_office": "post_partner", "post_office:brand": "DHL", "shop": "kiosk"}}, {"type": "node", "id": 4782903305, "lat": 51.2041866, "lon": 6.7386588, "tags": {"name": "Hammer B\u00fcdchen", "shop": "kiosk"}}, {"type": "node", "id": 4782903310, "lat": 51.2106877, "lon": 6.7662685, "tags": {"name": "Danger Zone", "opening_hours": "Th,Sa-Tu 11:00-22:00; Fr 11:00-23:00", "shop": "kiosk"}}, {"type": "node", "id": 4782907428, "lat": 51.2125384, "lon": 6.7643975, "tags": {"addr:city": "D\u00fcsseldorf", "addr:country": "DE", "addr:housenumber": "60", "addr:postcode": "40219", "addr:street": "Lorettostra\u00dfe", "check_date": "2025-05-08", "internet_access": "no", "name": "Billi's Markt", "opening_hours": "Mo-Th 10:00-23:00; Fr-Sa 10:00-24:00; Su 11:00-23:00", "origin": "greek", "shop": "kiosk", "wheelchair": "no"}}, {"type": "node", "id": 4782907457, "lat": 51.2081602, "lon": 6.7606345, "tags": {"name": "kio", "shop": "kiosk"}}, {"type": "node", "id": 4782912419, "lat": 51.2108009, "lon": 6.7672651, "tags": {"name:signed": "no", "opening_hours": "Mo-Fr 07:30-18:00; Sa 08:00-16:00", "shop": "kiosk", "wheelchair": "no"}}, {"type": "node", "id": 4782921265, "lat": 51.2107829, "lon": 6.7742649, "tags": {"name": "Bilk Kiosk", "shop": "kiosk"}}, {"type": "node", "id": 4796678048, "lat": 51.2081382, "lon": 6.7766923, "tags": {"check_date": "2024-10-24", "layer": "-1", "level": "0", "name": "HBB Store", "shop": "kiosk", "wheelchair": "yes"}}, {"type": "node", "id": 4796934800, "lat": 51.270797, "lon": 6.7766416, "tags": {"addr:city": "D\u00fcsseldorf", "addr:country": "DE", "addr:housenumber": "1a", "addr:postcode": "40468", "addr:street": "Spiekeroogstra\u00dfe", "name": "Trinkhalle", "shop": "kiosk"}}, {"type": "node", "id": 4798513722, "lat": 51.204637, "lon": 6.8866038, "tags": {"shop": "kiosk"}}, {"type": "node", "id": 4851610361, "lat": 51.2124776, "lon": 6.7805594, "tags": {"name": "Stehcafe", "opening_hours": "Mo-Fr 06:00-24:00, Sa,Su 08:00-24:00", "shop": "kiosk", "wheelchair": "yes"}}, {"type": "node", "id": 4867761540, "lat": 51.240612, "lon": 6.7824375, "tags": {"check_date": "2025-05-05", "name": "PRESSE-CENTER AM DREIECK", "opening_hours": "Mo-Fr 06:00-18:30, Sa 07:00-14:00", "shop": "kiosk", "wheelchair": "limited"}}, {"type": "node", "id": 4971088118, "lat": 51.197939, "lon": 6.8901901, "tags": {"addr:city": "D\u00fcsseldorf", "addr:country": "DE", "addr:housenumber": "16a", "addr:postcode": "40627", "addr:street": "Gro\u00dfer Torfbruch", "amenity": "fast_food", "contact:email": "info@biergartennichtschwimmer.de", "contact:fax": "+49 211-957 61 624", "contact:phone": "+49 211-957 61 627", "contact:website": "https://www.biergartennichtschwimmer.de", "cuisine": "hot_dog", "name": "Kiosk am Nordstrand", "opening_hours": "Mo - Fr 10:00 - 20:30; Sa, Su, PH 10:00 - 20:30", "shop": "kiosk"}}, {"type": "node", "id": 5032976023, "lat": 51.2441601, "lon": 6.7826634, "tags": {"addr:city": "D\u00fcsseldorf", "addr:country": "DE", "addr:housenumber": "64", "addr:postcode": "40476", "addr:street": "Collenbachstra\u00dfe", "name": "Kiosk Hakar", "shop": "kiosk"}}, {"type": "node", "id": 5092560469, "lat": 51.2237002, "lon": 6.7874218, "tags": {"coffee": "yes", "name": "F95 Kiosk", "shop": "kiosk", "wheelchair": "no"}}, {"type": "node", "id": 5252126121, "lat": 51.2125777, "lon": 6.7928202, "tags": {"addr:city": "D\u00fcsseldorf", "addr:country": "DE", "addr:housenumber": "19", "addr:postcode": "40227", "addr:street": "Sonnenstra\u00dfe", "name": "Saras Trinkhalle - Hermes Paketshop", "opening_hours": "Mo-Sa 07:00-24:00; Su 09:00-23:00", "shop": "kiosk"}}, {"type": "node", "id": 5260046932, "lat": 51.2128103, "lon": 6.7909133, "tags": {"addr:city": "D\u00fcsseldorf", "addr:country": "DE", "addr:housenumber": "2", "addr:postcode": "40227", "addr:street": "Sonnenstra\u00dfe", "name": "Kiosk Ecke", "shop": "kiosk"}}, {"type": "node", "id": 5260055137, "lat": 51.2102738, "lon": 6.7391782, "tags": {"addr:city": "D\u00fcsseldorf", "addr:country": "DE", "addr:housenumber": "30", "addr:postcode": "40221", "addr:street": "Kuhstra\u00dfe", "check_date": "2025-04-10", "name": "Stehcafe", "shop": "kiosk"}}, {"type": "node", "id": 5301816400, "lat": 51.1825007, "lon": 6.8171537, "tags": {"addr:city": "D\u00fcsseldorf", "addr:country": "DE", "addr:housenumber": "2", "addr:postcode": "40591", "addr:street": "Dechenweg", "name": "Trinkhalle D\u00fcssel Pizza", "opening_hours": "Mo-Sa 07:30-20:00; Su,PH 08:00-20:00", "phone": "+49-211-7598962", "shop": "kiosk"}}, {"type": "node", "id": 5301869708, "lat": 51.1748084, "lon": 6.8567451, "tags": {"addr:city": "D\u00fcsseldorf", "addr:country": "DE", "addr:housenumber": "90", "addr:postcode": "40599", "addr:street": "Eichelstra\u00dfe", "name": "Tante-Emma-Laden", "shop": "kiosk"}}, {"type": "node", "id": 5337892969, "lat": 51.2210363, "lon": 6.7914873, "tags": {"check_date:opening_hours": "2023-12-07", "name": "Pickers GO", "opening_hours:signed": "no", "payment:credit_cards": "yes", "payment:debit_cards": "yes", "shop": "kiosk", "wheelchair": "yes"}}, {"type": "node", "id": 5387860736, "lat": 51.2634494, "lon": 6.820078, "tags": {"addr:city": "D\u00fcsseldorf", "addr:country": "DE", "addr:housenumber": "99", "addr:postcode": "40472", "addr:street": "Westfalenstra\u00dfe", "name": "Kiosk Endstation", "opening_hours": "Mo-Fr 06:00-22:00", "shop": "kiosk"}}, {"type": "node", "id": 5407394474, "lat": 51.2631068, "lon": 6.7754807, "tags": {"name": "Wunnenber", "opening_hours:signed": "no", "shop": "kiosk"}}, {"type": "node", "id": 5464527763, "lat": 51.214237, "lon": 6.7868693, "tags": {"addr:city": "D\u00fcsseldorf", "addr:country": "DE", "addr:housenumber": "36", "addr:postcode": "40215", "addr:street": "Helmholtzstra\u00dfe", "name": "Kiosk", "shop": "kiosk"}}, {"type": "node", "id": 5485061943, "lat": 51.1502531, "lon": 6.8999011, "tags": {"addr:city": "D\u00fcsseldorf", "addr:country": "DE", "addr:housenumber": "2a", "addr:postcode": "40595", "addr:street": "G\u00fcstrower Stra\u00dfe", "shop": "kiosk"}}, {"type": "node", "id": 5485081951, "lat": 51.1447949, "lon": 6.9024592, "tags": {"addr:city": "D\u00fcsseldorf", "addr:country": "DE", "addr:housenumber": "24a", "addr:postcode": "40595", "addr:street": "Carl-Friedrich-Goerdeler-Stra\u00dfe", "name": "Trinkhalle", "shop": "kiosk"}}, {"type": "node", "id": 5614003872, "lat": 51.1979499, "lon": 6.8153126, "tags": {"amenity": "fast_food", "cuisine": "greek", "name": "Pepe Gyros Manufaktur", "opening_hours": "Tu-Su 11:00-21:00", "phone": "+49 211 69505773", "shop": "kiosk"}}, {"type": "node", "id": 5614003877, "lat": 51.1945707, "lon": 6.8261391, "tags": {"name": "My Kiosk", "opening_hours": "Mo-Fr 07:00-22:00, Sa 08:00-22:00", "shop": "kiosk"}}, {"type": "node", "id": 5614004431, "lat": 51.2126593, "lon": 6.8069671, "tags": {"addr:city": "D\u00fcsseldorf", "addr:country": "DE", "addr:housenumber": "278", "addr:postcode": "40227", "addr:street": "K\u00f6lner Stra\u00dfe", "amenity": "post_office", "brand": "Deutsche Post", "check_date:opening_hours": "2020-12-19", "lottery": "yes", "name": "Post/DHL Shop", "opening_hours": "Mo-Fr 08:00-18:30; Sa 08:00-14:00; Su,PH off", "shop": "kiosk", "wheelchair": "no"}}, {"type": "node", "id": 5630991332, "lat": 51.1980284, "lon": 6.770094, "tags": {"addr:city": "D\u00fcsseldorf", "addr:country": "DE", "addr:housenumber": "163", "addr:postcode": "40223", "addr:street": "Aachener Stra\u00dfe", "name": "Kiosk Sunshine", "opening_hours": "Mo-Fr 07:30-20:00; Sa 07:30-19:00", "shop": "kiosk", "wheelchair": "no"}}, {"type": "node", "id": 5759108448, "lat": 51.2149186, "lon": 6.7672374, "tags": {"name": "Kiosk am Pr\u00e4sidium", "shop": "kiosk", "wheelchair": "yes"}}, {"type": "node", "id": 5783015426, "lat": 51.2390247, "lon": 6.7789628, "tags": {"addr:city": "D\u00fcsseldorf", "addr:country": "DE", "addr:housenumber": "14", "addr:postcode": "40477", "addr:street": "Schwerinstra\u00dfe", "name": "Argo's Sp\u00e4ti", "shop": "kiosk"}}, {"type": "node", "id": 5825294485, "lat": 51.2273902, "lon": 6.7027304, "tags": {"addr:city": "D\u00fcsseldorf", "addr:country": "DE", "addr:housenumber": "239", "addr:postcode": "40549", "addr:street": "Heerdter Landstra\u00dfe", "shop": "kiosk"}}, {"type": "node", "id": 5857254576, "lat": 51.2452707, "lon": 6.7799297, "tags": {"addr:city": "D\u00fcsseldorf", "addr:country": "DE", "addr:housenumber": "57", "addr:postcode": "40476", "addr:street": "Ro\u00dfstra\u00dfe", "check_date": "2018-08-25", "check_date:opening_hours": "2021-06-01", "name": "Lotto Toto Gesch\u00e4ft", "opening_hours": "Mo-Fr 08:00-18:30; Sa 08:00-13:00; Su off", "shop": "kiosk", "source": "https://www.lotto-tabak.de/standort/rosstr-57-40476-dusseldorf-mohammad-homayun-rassuli.html"}}, {"type": "node", "id": 5937160585, "lat": 51.2133425, "lon": 6.8063508, "tags": {"addr:city": "D\u00fcsseldorf", "addr:country": "DE", "addr:housenumber": "262", "addr:postcode": "40227", "addr:street": "K\u00f6lner Stra\u00dfe", "name": "Telenet", "opening_hours": "Mo-Sa 10:00-21:00", "shop": "kiosk", "wheelchair": "limited"}}, {"type": "node", "id": 6017439544, "lat": 51.2456342, "lon": 6.7796528, "tags": {"addr:city": "D\u00fcsseldorf", "addr:country": "DE", "addr:housenumber": "59", "addr:postcode": "40476", "addr:street": "Ro\u00dfstra\u00dfe", "check_date": "2024-06-02", "name": "Kiosk", "note": "opening_hours are not available over internet", "opening_hours": "Mo-Fr 08:00-21:00; Sa 10:00-21:00; Su 11:00-21:00", "shop": "kiosk", "source": "https://www.oeffnungszeitenbuch.de/filiale/Duesseldorf-Kiosk%2520Rosssrasse-1069842W.html"}}, {"type": "node", "id": 6037407290, "lat": 51.1432848, "lon": 6.894747, "tags": {"addr:city": "D\u00fcsseldorf", "addr:country": "DE", "addr:housenumber": "91", "addr:postcode": "40595", "addr:street": "Peter-Behrens-Stra\u00dfe", "name": "Happy Kiosk", "shop": "kiosk"}}, {"type": "node", "id": 6105705403, "lat": 51.2340588, "lon": 6.7784202, "tags": {"level": "0", "name": "Kaiser Kiosk", "opening_hours": "Mo-Th 09:00-24:00, Fr 09:00-02:00, Sa 13:00-02:00, Su 12:00-24:00", "shop": "kiosk"}}, {"type": "node", "id": 6205835200, "lat": 51.2292495, "lon": 6.8211016, "tags": {"name": "Trinkhalle", "shop": "kiosk", "source": "knowledge"}}, {"type": "node", "id": 6531628275, "lat": 51.2383927, "lon": 6.7527451, "tags": {"level": "0", "shop": "kiosk"}}, {"type": "node", "id": 6560312741, "lat": 51.2662071, "lon": 6.8270655, "tags": {"addr:city": "D\u00fcsseldorf", "addr:country": "DE", "addr:housenumber": "71", "addr:postcode": "40472", "addr:street": "Oberrather Stra\u00dfe", "name": "Trinkhalle", "shop": "kiosk"}}, {"type": "node", "id": 6560341886, "lat": 51.1966305, "lon": 6.8480065, "tags": {"addr:city": "D\u00fcsseldorf", "addr:country": "DE", "addr:housenumber": "42a", "addr:postcode": "40229", "addr:street": "Heidelberger Stra\u00dfe", "brand": "DPD Paketshop", "brand:wikidata": "Q541030", "brand:wikipedia": "en:DPDgroup", "name": "Kiosk T\u00fcrkmen", "opening_hours": "Mo-Su 11:00-18:30", "payment:cash": "yes", "post_office": "post_partner", "shop": "kiosk", "website": "https://my.dpd.de/shopfinder.aspx", "wheelchair": "yes"}}, {"type": "node", "id": 6800395528, "lat": 51.2270689, "lon": 6.8121283, "tags": {"shop": "kiosk"}}, {"type": "node", "id": 6833670059, "lat": 51.2267473, "lon": 6.8112881, "tags": {"name": "Kiosk 77", "shop": "kiosk"}}, {"type": "node", "id": 7072347136, "lat": 51.2229937, "lon": 6.7825857}, {"type": "node", "id": 7072347137, "lat": 51.2229805, "lon": 6.7825593}, {"type": "node", "id": 7072347138, "lat": 51.2229914, "lon": 6.782457}, {"type": "node", "id": 7072347139, "lat": 51.2230132, "lon": 6.7824475}, {"type": "node", "id": 7072347140, "lat": 51.2231259, "lon": 6.7824788}, {"type": "node", "id": 7072347144, "lat": 51.223112, "lon": 6.782616}, {"type": "node", "id": 7117624596, "lat": 51.2149605, "lon": 6.8027312, "tags": {"addr:city": "D\u00fcsseldorf", "addr:country": "DE", "addr:housenumber": "13", "addr:postcode": "40227", "addr:street": "Josefstra\u00dfe", "shop": "kiosk"}}, {"type": "node", "id": 7364558257, "lat": 51.2146253, "lon": 6.7873157, "tags": {"amenity": "post_office", "brand": "DHL", "brand:wikidata": "Q489815", "check_date": "2023-08-20", "name": "DHL", "opening_hours": "Mo-Fr 06:00-18:30; Sa 07:00-14:30", "shop": "kiosk"}}, {"type": "node", "id": 7526710083, "lat": 51.2137978, "lon": 6.7809141, "tags": {"check_date": "2025-07-01", "name": "Kiosk-Stehcaf\u00e9 Evrensel", "shop": "kiosk"}}, {"type": "node", "id": 7552167817, "lat": 51.197988, "lon": 6.8031304, "tags": {"addr:city": "D\u00fcsseldorf", "addr:housenumber": "58", "addr:postcode": "40225", "addr:street": "In den Gro\u00dfen Banden", "check_date": "2025-05-29", "description": "\u201eS\u00fc\u00dfwaren, Eis und vieles mehr\u2026\u201c ist das Motto vom Kiosk S\u00fcdpark. Wer nur eine Kleinigkeit zur Erfrischung \u201ato go\u2018 kaufen m\u00f6chte, ist hier genau richtig", "name": "Kiosk S\u00fcdpark", "opening_hours": "\"Bei gutem Wetter\"", "operator": "Werkstatt f\u00fcr angepasste Arbeit GmbH", "shop": "kiosk", "website": "https://www.wfaa.de/entspannen-und-einkaufen/der-suedpark/kiosk/"}}, {"type": "node", "id": 7670930270, "lat": 51.1621059, "lon": 6.8783433}, {"type": "node", "id": 7670930271, "lat": 51.1621057, "lon": 6.8783188}, {"type": "node", "id": 7670930282, "lat": 51.1620178, "lon": 6.8783188}, {"type": "node", "id": 7670930283, "lat": 51.1620187, "lon": 6.8785803}, {"type": "node", "id": 7670930284, "lat": 51.1621912, "lon": 6.8785817}, {"type": "node", "id": 7670985885, "lat": 51.1621902, "lon": 6.8784647}, {"type": "node", "id": 7869267181, "lat": 51.2157174, "lon": 6.7819735, "tags": {"addr:city": "D\u00fcsseldorf", "addr:country": "DE", "addr:housenumber": "68-70", "addr:postcode": "40215", "addr:street": "Herzogstra\u00dfe", "check_date": "2025-04-04", "name": "Herzog Kiosk", "shop": "kiosk"}}, {"type": "node", "id": 7887924606, "lat": 51.1441265, "lon": 6.8983413, "tags": {"name:signed": "no", "opening_hours": "Mo-Sa 09:00-19:00", "shop": "kiosk"}}, {"type": "node", "id": 8299934846, "lat": 51.2592723, "lon": 6.8164307, "tags": {"addr:city": "D\u00fcsseldorf", "addr:country": "DE", "addr:housenumber": "57", "addr:postcode": "40472", "addr:street": "Rather Broich", "name": "Kiosk / UPS Access Point", "payment:cash": "yes", "post_office": "yes", "post_office:type": "post_partner", "shop": "kiosk"}}, {"type": "node", "id": 8324419275, "lat": 51.2230019, "lon": 6.78246}, {"type": "node", "id": 8393394114, "lat": 51.3011982, "lon": 6.7400945, "tags": {"addr:city": "D\u00fcsseldorf", "addr:country": "DE", "addr:housenumber": "2", "addr:postcode": "40489", "addr:street": "Am Kreuzberg", "lottery": "yes", "name": "Lotto Tabak Fuchs", "opening_hours": "Mo-Fr 08:00-18:30; Sa 08:00-14:00", "post_office": "post_partner", "post_office:brand": "Hermes PaketShop", "post_office:brand:wikidata": "Q105702843", "post_office:service_provider": "Hermes Group", "ref:Hermes": "683732", "shop": "kiosk", "source": "Bing", "tobacco": "yes", "wheelchair": "yes"}}, {"type": "node", "id": 8488001735, "lat": 51.2636197, "lon": 6.8158763, "tags": {"check_date:opening_hours": "2024-02-04", "name:signed": "no", "opening_hours:signed": "no", "shop": "kiosk"}}, {"type": "node", "id": 8493894393, "lat": 51.2633567, "lon": 6.8179768, "tags": {"name": "Markt Kiosk", "opening_hours": "Mo-Fr 06:00-23:00", "shop": "kiosk"}}, {"type": "node", "id": 8983888839, "lat": 51.1992072, "lon": 6.7888654, "tags": {"addr:city": "D\u00fcsseldorf", "addr:country": "DE", "addr:housenumber": "78", "addr:postcode": "40225", "addr:street": "Moorenstra\u00dfe", "shop": "kiosk"}}, {"type": "node", "id": 9018014402, "lat": 51.2207853, "lon": 6.7847942, "tags": {"name": "Kiosk", "shop": "kiosk"}}, {"type": "node", "id": 9099237449, "lat": 51.2213575, "lon": 6.7739947, "tags": {"addr:city": "D\u00fcsseldorf", "addr:country": "DE", "addr:housenumber": "29", "addr:postcode": "40213", "addr:street": "Hohe Stra\u00dfe", "name": "SIM CITY Postfiliale", "opening_hours": "Mo-Fr 08:30-18:30; Sa 09:00-14:00; Su,PH off", "shop": "kiosk", "wheelchair": "yes"}}, {"type": "node", "id": 10056546144, "lat": 51.2369074, "lon": 6.7789436, "tags": {"name": "Nord Kiosk", "shop": "kiosk"}}, {"type": "node", "id": 10699032095, "lat": 51.1632126, "lon": 6.8736679, "tags": {"name": "Tabak Hoffmann", "opening_hours": "Mo-Fr 07:30-17:30; Sa 08:00-13:30", "shop": "kiosk"}}, {"type": "node", "id": 10700216426, "lat": 51.2517189, "lon": 6.8214437, "tags": {"addr:city": "D\u00fcsseldorf", "addr:country": "DE", "addr:housenumber": "1", "addr:postcode": "40470", "addr:street": "Lenaustra\u00dfe", "name": "Lotto Kiosk Citak", "opening_hours": "Mo-Fr 06:00-18:00; Sa 07:00-14:00", "phone": "+4921123922479", "shop": "kiosk", "website": "https://lotto-citak.eatbu.com/"}}, {"type": "node", "id": 10863893285, "lat": 51.2382058, "lon": 6.7872006, "tags": {"addr:city": "D\u00fcsseldorf", "addr:housenumber": "2a", "addr:postcode": "40477", "addr:street": "Ludwig-Wolker-Stra\u00dfe", "name": "Kiosk Mein Eck / Postfiliale 478", "opening_hours": "Mo-Fr 09:00-19:00; Sa 09:00-14:00", "shop": "kiosk"}}, {"type": "node", "id": 10875122722, "lat": 51.2819193, "lon": 6.7952036, "tags": {"name": "Candy Shop", "opening_hours": "08:00-23:00", "shop": "kiosk"}}, {"type": "node", "id": 10884317491, "lat": 51.2108897, "lon": 6.7960394, "tags": {"name:signed": "no", "shop": "kiosk"}}, {"type": "node", "id": 10903305250, "lat": 51.2270159, "lon": 6.7754895, "tags": {"level": "0", "name": "S\u00fc\u00dfland Shop", "shop": "kiosk"}}, {"type": "node", "id": 10968668247, "lat": 51.197515, "lon": 6.7827355, "tags": {"name": "Happy Shop", "post_office": "post_partner", "post_office:brand": "DHL", "shop": "kiosk"}}, {"type": "node", "id": 11035403577, "lat": 51.2431979, "lon": 6.7759618, "tags": {"name": "Derendorfer Markt-Halle", "opening_hours": "06:00-22:00", "shop": "kiosk", "wheelchair": "limited"}}, {"type": "node", "id": 11083811486, "lat": 51.1653052, "lon": 6.8704971, "tags": {"name": "Westi School Kiosk", "opening_hours": "Mo-Fr 07:00-21:00; Sa 09:00-21:00; Su 12:00-21:00", "shop": "kiosk"}}, {"type": "node", "id": 11125041911, "lat": 51.204406, "lon": 6.7769916, "tags": {"addr:city": "D\u00fcsseldorf", "addr:housenumber": "36", "addr:postcode": "40223", "addr:street": "Merowingerstra\u00dfe", "name": "Pio Super Store (Trinkhalle)", "shop": "kiosk"}}, {"type": "node", "id": 11333151787, "lat": 51.1997545, "lon": 6.8211566, "tags": {"email": "mare77@gmx.de", "name": "Happy Shop Trinkhalle Baur", "opening_hours": "Mo-Fr 07:00-22:00; Sa 08:00-22:00; Su 09:00-22:00", "phone": "+49 211 726617", "shop": "kiosk", "website": "https://trinkhalle-baur.eatbu.com/"}}, {"type": "node", "id": 11509209302, "lat": 51.2365334, "lon": 6.8594203, "tags": {"addr:city": "D\u00fcsseldorf", "addr:country": "DE", "addr:housenumber": "3", "addr:postcode": "40625", "addr:street": "Dreherstra\u00dfe", "name": "Happy Shop Trinkhalle", "shop": "kiosk"}}, {"type": "node", "id": 11865381691, "lat": 51.2187388, "lon": 6.7814356, "tags": {"addr:city": "D\u00fcsseldorf", "addr:housenumber": "23", "addr:postcode": "40212", "addr:street": "Graf-Adolf-Stra\u00dfe", "level": "0", "shop": "kiosk"}}, {"type": "node", "id": 12078533665, "lat": 51.2024215, "lon": 6.9019327, "tags": {"addr:housenumber": "74", "addr:street": "Gerresheimer Landstra\u00dfe", "name": "Unterbacher Kiosk", "opening_hours": "Mo-Fr 08:00-18:30; Sa 08:00-14:00", "phone": "+492284333112", "post_office": "post_partner", "post_office:brand": "Deutsche Post", "post_office:brand:wikidata": "Q5266289", "post_office:service_provider": "Deutsche Post", "ref:deutsche_post": "521", "shop": "kiosk"}}, {"type": "node", "id": 12234968143, "lat": 51.2160251, "lon": 6.8037863, "tags": {"shop": "kiosk"}}, {"type": "node", "id": 12240148510, "lat": 51.2124365, "lon": 6.8076889, "tags": {"shop": "kiosk"}}, {"type": "node", "id": 12301592070, "lat": 51.2206662, "lon": 6.7876517, "tags": {"name": "Trinkhalle", "shop": "kiosk"}}, {"type": "node", "id": 12377567086, "lat": 51.2276034, "lon": 6.7894425, "tags": {"name": "SchadowKiosk", "shop": "kiosk"}}, {"type": "node", "id": 12385962176, "lat": 51.2192092, "lon": 6.786358, "tags": {"name": "Roj Trinkhalle", "shop": "kiosk"}}, {"type": "node", "id": 12394351226, "lat": 51.2111089, "lon": 6.7933458, "tags": {"addr:city": "D\u00fcsseldorf", "addr:housenumber": "17", "addr:postcode": "40227", "addr:street": "Volksgartenstra\u00dfe", "name": "Kiosk Karakus", "shop": "kiosk"}}, {"type": "node", "id": 12394660304, "lat": 51.2026068, "lon": 6.7845375, "tags": {"addr:city": "D\u00fcsseldorf", "addr:housenumber": "30", "addr:postcode": "40225", "addr:street": "Witzelstra\u00dfe", "check_date": "2025-04-02", "name": "Kiosk Witzelstr.", "shop": "kiosk"}}, {"type": "node", "id": 12673328368, "lat": 51.2304837, "lon": 6.8093293, "tags": {"addr:city": "D\u00fcsseldorf", "addr:housenumber": "15", "addr:postcode": "40235", "addr:street": "Dorotheenstra\u00dfe", "brand": "City Kiosk", "name": "City Kiosk", "post_office": "post_partner", "post_office:brand": "DHL Paketshop", "post_office:parcel_from": "yes", "post_office:parcel_pickup": "yes", "post_office:parcel_to": "yes", "post_office:service_provider": "DHL", "shop": "kiosk"}}, {"type": "node", "id": 12691429363, "lat": 51.2139133, "lon": 6.8053185, "tags": {"check_date": "2025-03-22", "name": "Rose Trinkhalle", "shop": "kiosk", "wheelchair": "no"}}, {"type": "node", "id": 12694934671, "lat": 51.1917529, "lon": 6.8157307, "tags": {"addr:city": "D\u00fcsseldorf", "addr:housenumber": "112", "addr:postcode": "40591", "addr:street": "K\u00f6lner Landstra\u00dfe", "name": "K1's Shop", "shop": "kiosk"}}, {"type": "way", "id": 119500257, "nodes": [3280560369, 3280560367, 3280560364, 3280560363, 3280560365, 3280560370, 3280560369], "tags": {"addr:city": "D\u00fcsseldorf", "addr:country": "DE", "addr:housenumber": "50a", "addr:postcode": "40217", "addr:street": "Bachstra\u00dfe", "alt_name": "Bedris B\u00fcdchen", "building": "retail", "building:colour": "#E96B39", "building:levels": "1", "building:material": "plaster", "building:use:retail": "yes", "name": "Bedri's Island", "opening_hours": "Tu-Fr 10:00-19:00; Sa,Su,PH 11:00-19:00", "operator": "Bedri Ponik", "roof:colour": "black", "roof:shape": "flat", "shop": "kiosk", "source:outline": "ALKIS NRW", "wheelchair": "yes"}}, {"type": "way", "id": 399046344, "nodes": [1598279906, 4017820833, 4017820831, 4017820836, 1598279906], "tags": {"building": "kiosk", "noname": "yes", "shop": "kiosk", "wheelchair": "yes"}}, {"type": "way", "id": 757320616, "nodes": [7072347144, 3202951405, 7072347136, 7072347137, 7072347138, 8324419275, 7072347139, 7072347140, 7072347144], "tags": {"building:material": "tiles", "building:part": "yes", "layer": "-1", "level": "-1", "name": "Ankes Br\u00f6tchen", "opening_hours": "Mo-Fr 06:00-11:00", "payment:credit_cards": "yes", "payment:debit_cards": "yes", "shop": "kiosk", "wheelchair": "yes"}}, {"type": "way", "id": 821510967, "nodes": [7670985885, 7670930284, 7670930283, 7670930282, 7670930271, 7670930270, 7670985885], "tags": {"indoor": "corridor", "name": "Service Store", "opening_hours": "Mo-Fr 05:00-19:30; Sa 07:00-19:30; Su 09:00-18:00; PH 09:00-18:00", "payment:credit_cards": "yes", "payment:debit_cards": "yes", "shop": "kiosk", "wheelchair": "limited"}}]}