{"version": 0.6, "generator": "Overpass API 0.7.62.7 375dc00a", "osm3s": {"timestamp_osm_base": "2025-07-25T11:30:51Z", "copyright": "The data included in this document is from www.openstreetmap.org. The data is made available under ODbL."}, "elements": [{"type": "node", "id": 61274250, "lat": 48.2211771, "lon": 16.3735891, "tags": {"addr:city": "Wien", "addr:country": "AT", "addr:housenumber": "30", "addr:postcode": "1020", "addr:street": "Untere Augartenstra\u00dfe", "brand": "Billa", "brand:wikidata": "Q537781", "brand:wikipedia": "en:Billa (supermarket)", "name": "Billa", "note": "Christi Himmelfahrt und Pfingstmontag geschlossen!", "opening_hours": "Mo-Fr 07:15-19:30; Sa 07:15-18:00; Su off; PH off", "phone": "+43 1 9610208", "shop": "supermarket", "website": "https://www.billa.at/", "wheelchair": "yes", "wheelchair:description:de": "niedrige Stufe ca 1.5 cm"}}, {"type": "node", "id": 61274400, "lat": 48.2167993, "lon": 16.3856625, "tags": {"check_date:opening_hours": "2024-11-22", "contact:website": "http://nakwon.at", "description": "Asiatische Waren", "name": "Nakwon", "opening_hours": "Mo-Fr 10:00-18:55; Sa 10:00-17:55", "origin": "asian", "shop": "supermarket", "wheelchair": "no"}}, {"type": "node", "id": 249342824, "lat": 48.2136723, "lon": 16.3918468, "tags": {"brand": "Penny", "brand:wikidata": "Q284688", "brand:wikipedia": "en:Penny (supermarket)", "name": "Penny", "opening_hours": "Mo-Fr 07:15-19:30; Sa 07:15-18:00", "shop": "supermarket", "wheelchair": "no"}}, {"type": "node", "id": 278123721, "lat": 48.2187932, "lon": 16.3814258, "tags": {"addr:city": "Wien", "addr:country": "AT", "addr:housenumber": "40", "addr:postcode": "1020", "addr:street": "Taborstra\u00dfe", "brand": "SPAR Gourmet", "brand:wikidata": "Q610492", "check_date:opening_hours": "2025-05-16", "name": "Spar Gourmet", "opening_hours": "Mo-Fr 07:15-19:30; Sa 07:15-18:00", "phone": "+43 1 2164423", "shop": "supermarket", "website": "https://www.spar.at/standorte/spar-gourmet-wien-1020-taborstrasse-40", "wheelchair": "yes"}}, {"type": "node", "id": 293285826, "lat": 48.2194868, "lon": 16.3804142, "tags": {"brand": "Hofer", "brand:wikidata": "Q15815751", "brand:wikipedia": "de:Hofer KG", "check_date": "2024-09-01", "check_date:opening_hours": "2024-09-01", "name": "Hofer", "opening_hours": "Mo-Fr 07:40-20:00; Sa 07:40-18:00", "shop": "supermarket", "wheelchair": "limited"}}, {"type": "node", "id": 316284575, "lat": 48.2152102, "lon": 16.4154984}, {"type": "node", "id": 316284576, "lat": 48.2150287, "lon": 16.4148196}, {"type": "node", "id": 316284577, "lat": 48.214868, "lon": 16.4150049}, {"type": "node", "id": 316284579, "lat": 48.2150323, "lon": 16.4156072}, {"type": "node", "id": 316740003, "lat": 48.2034104, "lon": 16.4331551}, {"type": "node", "id": 316740004, "lat": 48.2030904, "lon": 16.432664}, {"type": "node", "id": 316740005, "lat": 48.2029439, "lon": 16.4328803}, {"type": "node", "id": 316740006, "lat": 48.2031153, "lon": 16.4333115}, {"type": "node", "id": 348377950, "lat": 48.2239654, "lon": 16.406077, "tags": {"addr:city": "Wien", "addr:country": "AT", "addr:postcode": "1020", "brand": "PENNY", "brand:wikidata": "Q284688", "brand:wikipedia": "en:Penny (supermarket)", "check_date:opening_hours": "2021-06-05", "name": "PENNY", "opening_hours": "Mo-Fr 07:15-19:30; Sa 07:15-18:00", "shop": "supermarket", "wheelchair": "yes"}}, {"type": "node", "id": 348382430, "lat": 48.221789, "lon": 16.4072174, "tags": {"addr:city": "Wien", "addr:country": "AT", "addr:housenumber": "193-195", "addr:postcode": "1020", "addr:street": "Engerthstra\u00dfe", "atm": "yes", "brand": "Spar", "brand:wikidata": "Q610492", "brand:wikipedia": "en:Spar (retailer)", "check_date:opening_hours": "2024-03-07", "diet:halal": "yes", "diet:kosher": "yes", "name": "Spar", "opening_hours": "Mo-Fr 07:15-19:30; Sa 07:15-18:00", "phone": "+43 1 7298691", "shop": "supermarket", "website": "https://www.spar.at/standorte/spar-wien-1020-engerthstrasse-193-195", "wheelchair": "yes"}}, {"type": "node", "id": 348383491, "lat": 48.2225981, "lon": 16.4060984, "tags": {"addr:city": "Wien", "addr:country": "AT", "addr:housenumber": "191", "addr:postcode": "1020", "addr:street": "Engerthstra\u00dfe", "brand": "ETSAN", "brand:wikidata": "Q25916921", "brand:wikipedia": "de:ETSAN", "description": "ehem. Zielpunkt", "diet:halal": "only", "name": "ETSAN", "opening_hours": "Mo-Fr 08:00-19:00; Sa 08:00-18:00", "shop": "supermarket", "wheelchair": "limited"}}, {"type": "node", "id": 349274551, "lat": 48.2228765, "lon": 16.4037655, "tags": {"name": "Aycan", "opening_hours": "Mo-Fr 07:00-19:00; Sa 07:00-18:00", "shop": "supermarket", "wheelchair": "limited"}}, {"type": "node", "id": 353682085, "lat": 48.2250658, "lon": 16.4003054, "tags": {"addr:city": "Wien", "addr:country": "AT", "addr:housenumber": "134-138", "addr:postcode": "1020", "addr:street": "Vorgartenstra\u00dfe", "atm": "yes", "brand": "Eurospar", "brand:wikidata": "Q12309283", "brand:wikipedia": "da:Eurospar", "check_date": "2023-03-28", "check_date:opening_hours": "2023-12-29", "diet:halal": "yes", "diet:kosher": "yes", "internet_access": "no", "name": "Eurospar", "opening_hours": "Mo-Fr 07:40-20:00; Sa 07:40-18:00", "payment:credit_cards": "yes", "payment:debit_cards": "yes", "payment:mastercard": "yes", "payment:visa": "yes", "shop": "supermarket", "source": "survey", "wheelchair": "yes"}}, {"type": "node", "id": 359951821, "lat": 48.2261868, "lon": 16.3996556, "tags": {"addr:city": "Wien", "addr:country": "AT", "addr:housenumber": "167", "addr:postcode": "1020", "addr:street": "Vorgartenstra\u00dfe", "brand": "Penny", "brand:wikidata": "Q284688", "brand:wikipedia": "en:Penny (supermarket)", "check_date": "2024-09-20", "check_date:opening_hours": "2024-09-20", "internet_access": "no", "name": "Penny", "opening_hours": "Mo-Fr 07:15-19:30; Sa 07:15-18:00; PH off", "payment:credit_cards": "yes", "payment:debit_cards": "yes", "payment:mastercard": "yes", "payment:visa": "yes", "shop": "supermarket", "source": "survey", "wheelchair": "yes"}}, {"type": "node", "id": 364414944, "lat": 48.2142727, "lon": 16.3857045, "tags": {"addr:city": "Wien", "addr:country": "AT", "addr:housenumber": "4", "addr:postcode": "1020", "addr:street": "Czerningasse", "brand": "Billa", "brand:wikidata": "Q537781", "brand:wikipedia": "en:Billa (supermarket)", "name": "Billa", "note": "Christi Himmelfahrt und Pfingstmontag geschlossen!", "opening_hours": "Mo-Fr 07:40-20:00; Sa 07:40-18:00; Su off; PH off", "operator": "Rewe International", "phone": "+43 1 9610249", "shop": "supermarket", "source": "http://www.billa.at/Metanavigation/Filialen/Filialfinder_Maps/_Filialfinder_Maps/Location/f273/dd_bi_subpage.aspx", "website": "https://www.billa.at/", "wheelchair": "yes"}}, {"type": "node", "id": 403827836, "lat": 48.2136165, "lon": 16.3799137, "tags": {"addr:city": "Wien", "addr:country": "AT", "addr:housenumber": "8a", "addr:postcode": "1020", "addr:street": "Taborstra\u00dfe", "brand": "Billa", "brand:wikidata": "Q537781", "brand:wikipedia": "en:Billa (supermarket)", "check_date": "2022-10-25", "check_date:opening_hours": "2022-07-12", "name": "Billa", "note": "Christi Himmelfahrt und Pfingstmontag geschlossen!", "opening_hours": "Mo-Fr 07:40-20:00; Sa 07:40-18:00; Su off; PH off", "operator": "Rewe International", "phone": "+43 1 2186455", "shop": "supermarket", "website": "https://www.billa.at/", "wheelchair": "yes"}}, {"type": "node", "id": 403828060, "lat": 48.2141188, "lon": 16.3801175, "tags": {"addr:city": "Wien", "addr:country": "AT", "addr:housenumber": "10", "addr:postcode": "1020", "addr:street": "Taborstra\u00dfe", "brand": "denn's Biomarkt", "brand:wikidata": "Q48883773", "brand:wikipedia": "de:Denns Biomarkt", "fair_trade": "yes", "name": "denn's Biomarkt", "opening_hours": "Mo-Fr 08:00-19:30; Sa 08:00-18:00; Su,PH off", "organic": "only", "phone": "+43 1 2125810", "shop": "supermarket", "website": "https://www.denns-biomarkt.at/", "wheelchair": "no"}}, {"type": "node", "id": 416555643, "lat": 48.2287841, "lon": 16.3978909}, {"type": "node", "id": 416555644, "lat": 48.228345, "lon": 16.3970523}, {"type": "node", "id": 416555645, "lat": 48.2278099, "lon": 16.3976838}, {"type": "node", "id": 416555646, "lat": 48.2282489, "lon": 16.3985224}, {"type": "node", "id": 430900308, "lat": 48.2326875, "lon": 16.3957326, "tags": {"addr:city": "Wien", "addr:country": "AT", "addr:housenumber": "132", "addr:postcode": "1020", "addr:street": "Handelskai", "brand": "Billa", "brand:wikidata": "Q537781", "brand:wikipedia": "en:Billa (supermarket)", "check_date": "2024-08-27", "name": "Billa", "opening_hours": "Mo-Fr 07:15-19:30; Sa 07:15-18:00; Su off; PH off", "operator": "Rewe International", "phone": "+43 1 2125634", "shop": "supermarket", "website": "https://www.billa.at/", "wheelchair": "yes"}}, {"type": "node", "id": 476422576, "lat": 48.2203329, "lon": 16.3827594, "tags": {"brand": "Penny", "brand:wikidata": "Q284688", "brand:wikipedia": "en:Penny (supermarket)", "check_date": "2025-05-16", "check_date:opening_hours": "2025-05-16", "name": "Penny", "opening_hours": "Mo-Fr 07:15-19:30; Sa 07:15-18:00", "operator": "Penny Markt", "shop": "supermarket", "wheelchair": "yes"}}, {"type": "node", "id": 536801641, "lat": 48.2225649, "lon": 16.3725314, "tags": {"addr:city": "Wien", "addr:country": "AT", "addr:housenumber": "29", "addr:postcode": "1020", "addr:street": "Rembrandtstra\u00dfe", "brand": "Penny", "brand:wikidata": "Q284688", "brand:wikipedia": "en:Penny (supermarket)", "name": "Penny", "opening_hours": "Mo-Fr 07:40-20:00, Sa 07:40-18:00, Su off", "phone": "004313325075", "shop": "supermarket", "website": "https://www.penny.at/", "wheelchair": "yes", "wheelchair:description": "aber es gibt keine Kundentoilette"}}, {"type": "node", "id": 543670483, "lat": 48.2174355, "lon": 16.3840116, "tags": {"addr:city": "Wien", "addr:country": "AT", "addr:housenumber": "21-23", "addr:postcode": "1020", "addr:street": "Rotensterngasse", "brand": "Billa", "brand:wikidata": "Q537781", "brand:wikipedia": "en:Billa (supermarket)", "check_date:opening_hours": "2022-08-29", "name": "Billa", "note": "Christi Himmelfahrt und Pfingstmontag geschlossen!", "opening_hours": "Mo-Fr 07:40-20:00; Sa 07:40-18:00; Su off; PH off", "operator": "Rewe International", "phone": "+43 1 2197363", "shop": "supermarket", "website": "https://www.billa.at/", "wheelchair": "no"}}, {"type": "node", "id": 616816839, "lat": 48.2139875, "lon": 16.4151928, "tags": {"designation": "Tobacco shop", "name": "Trafik", "shop": "kiosk"}}, {"type": "node", "id": 673945580, "lat": 48.2158678, "lon": 16.3840434, "tags": {"brand": "Hofer", "brand:wikidata": "Q15815751", "brand:wikipedia": "de:Hofer KG", "check_date:opening_hours": "2024-08-07", "name": "Hofer", "opening_hours": "Mo-Fr 07:40-20:00; Sa 07:40-18:00; PH off", "operator": "Hofer/Aldi", "shop": "supermarket", "wheelchair": "yes"}}, {"type": "node", "id": 911120894, "lat": 48.2212961, "lon": 16.386296, "tags": {"addr:city": "Wien", "addr:country": "AT", "addr:housenumber": "11", "addr:postcode": "1020", "addr:street": "Rueppgasse", "brand": "Billa", "brand:wikidata": "Q537781", "brand:wikipedia": "en:Billa (supermarket)", "name": "Billa", "note": "Christi Himmelfahrt und Pfingstmontag geschlossen!", "opening_hours": "Mo-Fr 07:40-20:00; Sa 07:40-18:00; Su off; PH off", "operator": "Rewe International", "phone": "+43 1 9612535", "shop": "supermarket", "website": "https://www.billa.at/", "wheelchair": "no"}}, {"type": "node", "id": 917081247, "lat": 48.2198089, "lon": 16.3875862, "tags": {"brand": "Penny", "brand:wikidata": "Q284688", "brand:wikipedia": "en:Penny (supermarket)", "name": "Penny", "opening_hours": "Mo-Fr 07:15-19:30; Sa 07:15-18:00", "shop": "supermarket", "wheelchair": "no"}}, {"type": "node", "id": 952086466, "lat": 48.2149275, "lon": 16.4149608, "tags": {"amenity": "atm", "brand": "Raiffeisen", "brand:wikidata": "Q2127528", "cash_in": "no", "check_date": "2023-02-26", "opening_hours": "24/7", "operator": "Raiffeisen", "operator:wikidata": "Q2127528"}}, {"type": "node", "id": 986700710, "lat": 48.2129808, "lon": 16.4206415, "tags": {"brand": "Penny", "brand:wikidata": "Q284688", "brand:wikipedia": "en:Penny (supermarket)", "name": "Penny", "shop": "supermarket", "wheelchair": "yes"}}, {"type": "node", "id": 1110205314, "lat": 48.2227405, "lon": 16.4011401, "tags": {"name": "Xalo's Supermarkt", "shop": "supermarket", "survey:date": "2021-06-15", "wheelchair": "no"}}, {"type": "node", "id": 1191124982, "lat": 48.2282282, "lon": 16.3971902}, {"type": "node", "id": 1191125005, "lat": 48.2287467, "lon": 16.397941}, {"type": "node", "id": 1344837575, "lat": 48.2228345, "lon": 16.3861242}, {"type": "node", "id": 1344837670, "lat": 48.2228965, "lon": 16.3861494}, {"type": "node", "id": 1344837688, "lat": 48.2228128, "lon": 16.3862444}, {"type": "node", "id": 1344837804, "lat": 48.2228749, "lon": 16.3862696}, {"type": "node", "id": 1506681251, "lat": 48.2191547, "lon": 16.4077665, "tags": {"name": "Kuba Market", "opening_hours": "Mo-Fr 08:00-19:00; Sa 08:00-18:00", "shop": "convenience"}}, {"type": "node", "id": 1576703284, "lat": 48.219687, "lon": 16.4094606, "tags": {"addr:city": "Wien", "addr:country": "AT", "addr:housenumber": "214F", "addr:postcode": "1020", "addr:street": "Engerthstra\u00dfe", "brand": "Eurospar", "brand:wikidata": "Q12309283", "brand:wikipedia": "da:Eurospar", "name": "Eurospar", "opening_hours": "Mo-Fr 07:40-20:00; Sa 07:40-18:00", "shop": "supermarket", "wheelchair": "yes"}}, {"type": "node", "id": 1676205978, "lat": 48.2149432, "lon": 16.4149492}, {"type": "node", "id": 1676205983, "lat": 48.214988, "lon": 16.4148875}, {"type": "node", "id": 1686322703, "lat": 48.2222738, "lon": 16.3992, "tags": {"addr:city": "Wien", "addr:country": "AT", "addr:housenumber": "1", "addr:postcode": "1020", "addr:street": "Harkortstra\u00dfe", "name": "K\u00f6nigstrade Spirituosen", "shop": "alcohol"}}, {"type": "node", "id": 1688732447, "lat": 48.2189329, "lon": 16.3973085, "tags": {"addr:city": "Wien", "addr:country": "AT", "addr:housenumber": "1-3", "addr:postcode": "1020", "addr:street": "Stuwerstra\u00dfe", "brand": "Billa", "brand:wikidata": "Q537781", "brand:wikipedia": "en:Billa (supermarket)", "check_date:opening_hours": "2024-08-27", "name": "Billa", "opening_hours": "Mo-Fr 07:40-20:00; Sa 07:40-18:00; Su off; PH off", "operator": "Rewe International", "phone": "+43 1 9610265", "shop": "supermarket", "website": "https://www.billa.at/", "wheelchair": "limited"}}, {"type": "node", "id": 1688732816, "lat": 48.2182031, "lon": 16.3973401, "tags": {"brand": "Penny", "brand:wikidata": "Q284688", "brand:wikipedia": "en:Penny (supermarket)", "check_date:opening_hours": "2022-12-01", "level": "0", "name": "Penny", "opening_hours": "Mo-Fr 07:15-19:30; Sa 07:15-18:00", "shop": "supermarket", "wheelchair": "yes"}}, {"type": "node", "id": 1689138145, "lat": 48.2189386, "lon": 16.4019627, "tags": {"addr:city": "Wien", "addr:country": "AT", "addr:housenumber": "27", "addr:postcode": "1020", "addr:street": "Stuwerstra\u00dfe", "brand": "Billa", "brand:wikidata": "Q537781", "brand:wikipedia": "en:Billa (supermarket)", "name": "Billa", "opening_hours": "Mo-Fr 07:40-20:00; Sa 07:40-18:00; Su off; PH off", "operator": "Rewe International", "phone": "+43 1 9553290", "shop": "supermarket", "website": "https://www.billa.at/", "wheelchair": "yes"}}, {"type": "node", "id": 1708399899, "lat": 48.2194565, "lon": 16.3870083}, {"type": "node", "id": 1708399904, "lat": 48.2195008, "lon": 16.3867621}, {"type": "node", "id": 1708399968, "lat": 48.2195949, "lon": 16.3871026}, {"type": "node", "id": 1708400018, "lat": 48.2197042, "lon": 16.3869049}, {"type": "node", "id": 1722301359, "lat": 48.2189083, "lon": 16.4029607, "tags": {"name:signed": "no", "shop": "kiosk", "wheelchair": "yes"}}, {"type": "node", "id": 1722306642, "lat": 48.2235322, "lon": 16.4049705, "tags": {"designation": "Tobacco shop", "name": "Reindl 17", "opening_hours": "Mo-Fr 07:30-19:00; Sa 08:00-18:00", "shop": "kiosk", "tobacco": "yes", "wheelchair": "yes"}}, {"type": "node", "id": 1758070119, "lat": 48.2175342, "lon": 16.3774078}, {"type": "node", "id": 1758070120, "lat": 48.2175348, "lon": 16.3773048}, {"type": "node", "id": 1758070121, "lat": 48.2175878, "lon": 16.3774113}, {"type": "node", "id": 1758070122, "lat": 48.2175887, "lon": 16.377387}, {"type": "node", "id": 1758070123, "lat": 48.2176263, "lon": 16.3773888}, {"type": "node", "id": 1758070124, "lat": 48.2176284, "lon": 16.3773081}, {"type": "node", "id": 1786176025, "lat": 48.2263567, "lon": 16.3857359, "tags": {"addr:city": "Wien", "addr:country": "AT", "addr:housenumber": "96", "addr:postcode": "1020", "addr:street": "Taborstra\u00dfe", "name:signed": "no", "shop": "kiosk", "tobacco": "yes"}}, {"type": "node", "id": 1835611063, "lat": 48.2030373, "lon": 16.4331813}, {"type": "node", "id": 1835611076, "lat": 48.2031572, "lon": 16.4332491}, {"type": "node", "id": 1835611081, "lat": 48.2032545, "lon": 16.4334024}, {"type": "node", "id": 1835611084, "lat": 48.2030771, "lon": 16.4331138}, {"type": "node", "id": 1870007219, "lat": 48.219854, "lon": 16.3755104, "tags": {"addr:city": "Wien", "addr:country": "AT", "addr:housenumber": "8", "addr:postcode": "1020", "addr:street": "Malzgasse", "brand": "Billa", "brand:wikidata": "Q537781", "brand:wikipedia": "en:Billa (supermarket)", "check_date:opening_hours": "2024-08-11", "designation": "Supermarket", "name": "Billa", "note": "Christi Himmelfahrt und Pfingstmontag geschlossen!", "opening_hours": "Mo-Fr 07:40-20:00; Sa 07:40-18:00; Su off; PH off", "phone": "+43 1 2125302", "shop": "supermarket", "source": "http://www.billa.at/Metanavigation/Filialen/Filialfinder_Maps/_Filialfinder_Maps/Location/f273/dd_bi_subpage.aspx", "website": "https://www.billa.at/", "wheelchair": "yes"}}, {"type": "node", "id": 1881666814, "lat": 48.2176142, "lon": 16.377238, "tags": {"name": "Obst und Gem\u00fcsehandel Cvetic Dejan", "organic": "only", "shop": "supermarket"}}, {"type": "node", "id": 1881666831, "lat": 48.2175447, "lon": 16.3774084, "tags": {"amenity": "vending_machine", "check_date": "2023-09-29", "indoor": "no", "payment:coins": "yes", "payment:debit_cards": "yes", "payment:notes": "yes", "vending": "cigarettes"}}, {"type": "node", "id": 1908267140, "lat": 48.2264431, "lon": 16.4004895, "tags": {"addr:city": "Wien", "addr:country": "AT", "addr:housenumber": "160-178", "addr:postcode": "1020", "addr:street": "Engerthstra\u00dfe", "brand": "Billa", "brand:wikidata": "Q537781", "brand:wikipedia": "en:Billa (supermarket)", "check_date": "2023-04-27", "internet_access": "no", "name": "Billa", "opening_hours": "Su off; PH off; Mo-Fr 07:40-20:00; Sa 07:40-18:00", "operator": "Rewe International", "payment:credit_cards": "yes", "payment:debit_cards": "yes", "payment:mastercard": "yes", "payment:visa": "yes", "phone": "+43 1 2126258", "shop": "supermarket", "source": "https://www.billa.at/Metanavigation/Filialen/Filialfinder_Result/_Filialfinder_Ergebnis/Start/W/dd_bi_subpage.aspx", "website": "https://www.billa.at/", "wheelchair": "yes"}}, {"type": "node", "id": 2087681758, "lat": 48.2062082, "lon": 16.3986759, "tags": {"name": "Trafik", "shop": "kiosk"}}, {"type": "node", "id": 2281065587, "lat": 48.216316, "lon": 16.387986, "tags": {"addr:postcode": "1020", "brand": "Spar Gourmet", "brand:wikidata": "Q610492", "check_date": "2025-04-04", "check_date:opening_hours": "2025-04-04", "internet_access": "wlan", "name": "Spar Gourmet", "opening_hours": "Mo-Fr 07:40-20:00; Sa 07:40-18:00", "operator": "Spar", "payment:cash": "yes", "payment:credit_cards": "yes", "payment:debit_cards": "yes", "phone": "+43 1 2129835", "shop": "supermarket", "website": "https://www.spar.at/standorte/spar-gourmet-wien-1020-praterstrasse-60", "wheelchair": "yes"}}, {"type": "node", "id": 2472331331, "lat": 48.2240038, "lon": 16.3975232, "tags": {"addr:city": "Wien", "addr:country": "AT", "addr:housenumber": "11", "addr:postcode": "1020", "addr:street": "Walcherstra\u00dfe", "brand": "Billa", "brand:wikidata": "Q537781", "brand:wikipedia": "en:Billa (supermarket)", "check_date:opening_hours": "2023-10-11", "fixme": "wheelchair tag", "name": "Billa", "opening_hours": "Mo-Fr 07:00-19:00; Sa 07:00-18:00; Su off; PH off", "operator": "Rewe International", "phone": "+43 1 2120587", "shop": "supermarket", "website": "https://www.billa.at/", "wheelchair": "yes"}}, {"type": "node", "id": 2484974272, "lat": 48.2195893, "lon": 16.3879481, "tags": {"addr:city": "Wien", "addr:country": "AT", "addr:housenumber": "35", "addr:postcode": "1020", "addr:street": "Heinestra\u00dfe", "amenity": "cafe", "bulk_purchase": "only", "contact:email": "info@mass-greisslerei.at", "contact:facebook": "https://www.facebook.com/massgreisslerei", "contact:phone": "+43 1 2121387", "description": "All unsere Lebensmittel werden lose und nach deinem Ma\u00df angeboten. So vermeiden wir sinnlosen Verpackungsm\u00fcll. M\u00f6glichst alles Bio und von lokalen Kleinproduzenten hergestellt.", "food": "yes", "name": "Lunzers Ma\u00dfgrei\u00dflerei", "opening_hours": "Mo-Fr 09:00-19:00; Sa 09:00-17:00", "organic": "only", "phone": "+43 699 103 746 37", "regional": "yes", "shop": "convenience", "source": "website", "website": "https://mass-greisslerei.at/"}}, {"type": "node", "id": 2489155801, "lat": 48.2255169, "lon": 16.3842222, "tags": {"addr:city": "Wien", "addr:country": "AT", "addr:postcode": "1020", "name": "Venus", "shop": "convenience"}}, {"type": "node", "id": 2505289190, "lat": 48.2105873, "lon": 16.4221019, "tags": {"addr:city": "Wien", "addr:country": "AT", "addr:housenumber": "2", "addr:postcode": "1020", "addr:street": "Olympiaplatz", "level": "0", "shop": "kiosk"}}, {"type": "node", "id": 2505289207, "lat": 48.2091467, "lon": 16.423502, "tags": {"addr:city": "Wien", "addr:country": "AT", "addr:housenumber": "2", "addr:postcode": "1020", "addr:street": "Olympiaplatz", "brand": "Billa Plus", "brand:wikidata": "Q115431077", "brand:wikipedia": "de:Billa", "diet:halal": "yes", "diet:kosher": "yes", "level": "0", "name": "Billa Plus", "old_name": "Merkur", "opening_hours": "Mo-Fr 07:20-19:30; Sa 07:20-18:00", "phone": "+43 59915 00134", "shop": "supermarket", "website": "https://www.billa.at", "wheelchair": "yes"}}, {"type": "node", "id": 2521014813, "lat": 48.2245196, "lon": 16.3959718, "tags": {"addr:city": "Wien", "addr:country": "AT", "addr:housenumber": "18/1", "addr:postcode": "1020", "addr:street": "Ernst-Melchior-Gasse", "atm": "yes", "brand": "Spar", "brand:wikidata": "Q610492", "brand:wikipedia": "en:Spar (retailer)", "check_date:opening_hours": "2025-03-23", "internet_access": "wlan", "name": "Spar", "opening_hours": "Mo-Fr 07:15-19:30; Sa 07:15-18:00", "operator": "Spar", "phone": "+43 810 111555", "shop": "supermarket", "website": "https://www.spar.at/"}}, {"type": "node", "id": 2525827578, "lat": 48.2182977, "lon": 16.3780117, "tags": {"addr:city": "Wien", "addr:country": "AT", "addr:housename": "Seifen-Party OG", "addr:housenumber": "31", "addr:postcode": "1020", "addr:street": "Gro\u00dfe Sperlgasse", "name": "Machma Naturseife", "opening_hours": "Tu-Fr 12:00-19:00; Sa 10:00-13:00; Mo off", "operator": "Machma Naturseife OG", "organic": "only", "phone": "+43 676 444 77 55", "shop": "supermarket", "website": "https://www.machma.biz/"}}, {"type": "node", "id": 2543743708, "lat": 48.2120438, "lon": 16.4101213, "tags": {"addr:city": "Wien", "addr:country": "AT", "addr:housenumber": "1 Obj. D2 Top 3/1", "addr:postcode": "1020", "addr:street": "Welthandelsplatz", "brand": "Spar", "brand:wikidata": "Q610492", "brand:wikipedia": "en:Spar (retailer)", "check_date:opening_hours": "2024-02-16", "contact:website": "https://www.spar.at/standorte/spar-wien-1020-welthandelsplatz-geb-d2-top-3-1", "name": "Spar", "opening_hours": "Mo-Fr 07:30-19:45; Sa 08:00-18:00", "operator": "Spar \u00d6sterreichische Warenhandels-AG", "phone": "+43 1 7297481", "shop": "supermarket", "wheelchair": "yes"}}, {"type": "node", "id": 2617117166, "lat": 48.2133618, "lon": 16.3798356, "tags": {"addr:city": "Wien", "addr:country": "AT", "addr:housenumber": "4", "addr:postcode": "1020", "addr:street": "Taborstra\u00dfe", "name": "Prima Markt", "opening_hours": "Mo-Su 07:30-20:00; PH off", "shop": "supermarket", "wheelchair": "yes"}}, {"type": "node", "id": 2617117224, "lat": 48.215319, "lon": 16.3850917, "tags": {"check_date": "2025-06-02", "name": "Asiana", "opening_hours": "Mo-Fr 10:00-18:00; Sa 09:30-17:00", "origin": "asian", "shop": "convenience"}}, {"type": "node", "id": 3508630328, "lat": 48.2161272, "lon": 16.3769173, "tags": {"addr:housenumber": "11", "addr:postcode": "1020", "addr:street": "Hollandstra\u00dfe", "brand": "Spar", "brand:wikidata": "Q610492", "brand:wikipedia": "en:Spar (retailer)", "name": "Spar", "opening_hours": "Mo-Fr 07:15-19:30; Sa 07:15-18:00", "shop": "supermarket", "website": "https://www.spar.at/standorte/spar-wien-leopoldstadt-1020-hollandstrasse-11", "wheelchair": "yes"}}, {"type": "node", "id": 3512189885, "lat": 48.2219293, "lon": 16.3825898, "tags": {"addr:city": "Wien", "addr:country": "AT", "addr:housenumber": "2", "addr:postcode": "1020", "addr:street": "Heinestra\u00dfe", "brand": "Billa", "brand:wikidata": "Q537781", "brand:wikipedia": "en:Billa (supermarket)", "check_date": "2024-11-27", "name": "Billa", "note": "Christi Himmelfahrt und Pfingstmontag geschlossen!", "opening_hours": "Mo-Fr 07:40-20:00; Sa 07:40-18:00; Su off; PH off", "operator": "Rewe International", "payment:cash": "yes", "payment:credit_cards": "yes", "payment:debit_cards": "yes", "phone": "+43 1 9610240", "shop": "supermarket", "website": "https://www.billa.at/", "wheelchair": "yes"}}, {"type": "node", "id": 3660968631, "lat": 48.2224032, "lon": 16.3826245, "tags": {"name": "\u0423\u0433\u043e\u043b\u041e\u041a", "name:de": "Ugolok", "opening_hours": "Mo-Fr 09:00-19:00; Sa 10:00-18:00", "shop": "convenience", "wheelchair": "no"}}, {"type": "node", "id": 3714352575, "lat": 48.2149999, "lon": 16.4154886, "tags": {"entrance": "main"}}, {"type": "node", "id": 3714352578, "lat": 48.2149427, "lon": 16.4152788, "tags": {"entrance": "main"}}, {"type": "node", "id": 3716638693, "lat": 48.2234531, "lon": 16.4002876, "tags": {"addr:city": "Wien", "addr:country": "AT", "addr:housenumber": "11", "addr:postcode": "1020", "addr:street": "Lassallestra\u00dfe", "check_date": "2023-05-10", "diet:halal": "yes", "diet:kosher": "yes", "name": "Nah & Frisch Punkt", "opening_hours": "Mo-Fr 08:00-22:00; Sa 14:00-20:00", "payment:credit_cards": "yes", "payment:debit_cards": "yes", "shop": "convenience", "wheelchair": "no"}}, {"type": "node", "id": 3724923965, "lat": 48.2186821, "lon": 16.3933019}, {"type": "node", "id": 3724923985, "lat": 48.2187125, "lon": 16.3933001}, {"type": "node", "id": 3724923990, "lat": 48.2187526, "lon": 16.393293}, {"type": "node", "id": 3724923995, "lat": 48.2187954, "lon": 16.393279}, {"type": "node", "id": 3727365972, "lat": 48.2186728, "lon": 16.3933494}, {"type": "node", "id": 3727365977, "lat": 48.2187342, "lon": 16.3933583}, {"type": "node", "id": 3727365978, "lat": 48.2188037, "lon": 16.3933439}, {"type": "node", "id": 3727531096, "lat": 48.2186388, "lon": 16.3923299}, {"type": "node", "id": 3727802513, "lat": 48.2186267, "lon": 16.3921688}, {"type": "node", "id": 3727802517, "lat": 48.2187186, "lon": 16.3920408}, {"type": "node", "id": 3727802518, "lat": 48.2187221, "lon": 16.3920927}, {"type": "node", "id": 3727802520, "lat": 48.2187267, "lon": 16.3921512}, {"type": "node", "id": 3727803128, "lat": 48.2190166, "lon": 16.3918736}, {"type": "node", "id": 3727803129, "lat": 48.2190528, "lon": 16.3923604}, {"type": "node", "id": 4031825347, "lat": 48.2193096, "lon": 16.3765674, "tags": {"name": "Supermari'", "shop": "convenience"}}, {"type": "node", "id": 4045394754, "lat": 48.2228947, "lon": 16.3824479, "tags": {"check_date:opening_hours": "2023-08-17", "description": "auch Sonntag ge\u00f6ffnet, allerdings nicht offiziell bekanntgemacht", "name": "Yenbo", "opening_hours": "Mo-Fr 08:00-20:00; Sa 08:00-18:00", "shop": "supermarket", "website": "http://www.yenbo.at", "wheelchair": "yes"}}, {"type": "node", "id": 4090484837, "lat": 48.2216487, "lon": 16.4021312, "tags": {"name": "Feinkost Julia", "opening_hours": "Mo-Fr 06:30-18:00, Sa 06:30-13:00", "shop": "convenience"}}, {"type": "node", "id": 4099962981, "lat": 48.2217496, "lon": 16.3981309, "tags": {"name": "N\u00e4hinsel - N\u00e4hatelier", "shop": "convenience"}}, {"type": "node", "id": 4099979136, "lat": 48.2225975, "lon": 16.39959, "tags": {"addr:city": "Wien", "addr:country": "AT", "addr:postcode": "1020", "check_date:opening_hours": "2024-09-20", "name": "Sportnahrung4Friends", "opening_hours": "Mo-Fr 11:00-19:00; Sa 10:00-15:00", "phone": "017295321", "shop": "convenience", "wheelchair": "no"}}, {"type": "node", "id": 4100575578, "lat": 48.2208526, "lon": 16.3963534, "tags": {"check_date:opening_hours": "2023-10-11", "name": "Orientalische ATCO Spezialit\u00e4ten", "opening_hours": "Mo-Fr 09:30-19:00; Sa 09:00-19:00", "shop": "convenience", "wheelchair": "limited"}}, {"type": "node", "id": 4473026719, "lat": 48.2166077, "lon": 16.3855101, "tags": {"addr:city": "Wien", "addr:country": "AT", "addr:housenumber": "30", "addr:postcode": "1020", "addr:street": "Rotensterngasse", "check_date": "2024-02-07", "name": "Tabak Trafik", "opening_hours": "Mo-Fr 05:45-18:00; Sa 07:15-12:00", "operator": "Gerhard Schiller", "shop": "kiosk", "wheelchair": "no"}}, {"type": "node", "id": 4557268306, "lat": 48.2182433, "lon": 16.3926124}, {"type": "node", "id": 4800617574, "lat": 48.2248707, "lon": 16.3832316, "tags": {"addr:housenumber": "87", "addr:postcode": "1020", "addr:street": "Taborstra\u00dfe", "brand": "Spar", "brand:wikidata": "Q610492", "brand:wikipedia": "en:Spar (retailer)", "check_date:opening_hours": "2021-09-25", "name": "Spar", "opening_hours": "Mo-Fr 07:15-19:30; Sa 07:15-18:00", "phone": "+43-1-212 3177", "shop": "supermarket", "website": "https://www.spar.at/standorte/spar-wien-leopoldstadt-1020-taborstrasse-87", "wheelchair": "yes"}}, {"type": "node", "id": 4829450273, "lat": 48.2199465, "lon": 16.3863504, "tags": {"name": "Shefa Markt", "opening_hours": "Mo-We 07:00-20:00; Th 07:00-21:00; Fr 07:00-15:00", "shop": "supermarket", "wheelchair": "yes"}}, {"type": "node", "id": 4934561721, "lat": 48.2187593, "lon": 16.3920363}, {"type": "node", "id": 5265213671, "lat": 48.214185, "lon": 16.3831806, "tags": {"addr:city": "Wien", "addr:country": "AT", "addr:housenumber": "25", "addr:postcode": "1020", "addr:street": "Praterstra\u00dfe", "brand": "Spar", "brand:wikidata": "Q610492", "brand:wikipedia": "en:SPAR (retailer)", "name": "Spar", "opening_hours": "Mo-Fr 07:30-20:00; Sa 08:30-18:00", "phone": "+43 1 2123140", "shop": "supermarket", "website": "https://www.spar.at/standorte/spar-wien-leopoldstadt-1020-praterstrasse-25", "wheelchair": "yes"}}, {"type": "node", "id": 5595728245, "lat": 48.2122027, "lon": 16.4119927, "tags": {"addr:city": "Wien", "addr:country": "AT", "addr:housenumber": "2", "addr:postcode": "1020", "addr:street": "Trabrennstra\u00dfe", "brand": "Billa", "brand:wikidata": "Q537781", "brand:wikipedia": "en:Billa (supermarket)", "check_date:opening_hours": "2025-03-11", "construction": "yes", "name": "Billa", "opening_hours": "Mo-Fr 07:40-20:00; Sa 07:40-18:00", "operator": "Rewe", "phone": "+43 (0)1 / 720 16 97", "shop": "supermarket"}}, {"type": "node", "id": 5698728342, "lat": 48.2239311, "lon": 16.3931116, "tags": {"addr:city": "Wien", "addr:country": "AT", "addr:housenumber": "42-44", "addr:postcode": "1020", "addr:street": "Am Tabor", "at_bev:addr_date": "2017-10-01", "brand": "Hofer", "brand:wikidata": "Q15815751", "brand:wikipedia": "de:Hofer KG", "check_date:opening_hours": "2025-06-24", "level": "0", "name": "Hofer", "opening_hours": "Mo-Fr 07:40-20:00; Sa 07:40-18:00; PH off", "shop": "supermarket", "wheelchair": "yes"}}, {"type": "node", "id": 5730357619, "lat": 48.2195556, "lon": 16.3824821, "tags": {"check_date:opening_hours": "2025-07-05", "contact:website": "https://www.allestorte.at", "name": "Alles Torte", "opening_hours": "Mo-We 11:00-16:00; Th,Fr 11:00-17:00", "shop": "supermarket", "wheelchair": "limited"}}, {"type": "node", "id": 5737602904, "lat": 48.2155353, "lon": 16.3769085, "tags": {"addr:housenumber": "10", "addr:street": "Hollandstra\u00dfe", "check_date": "2023-06-19", "check_date:opening_hours": "2022-12-21", "name": "Koscher Minimarkt", "opening_hours": "Mo-We 09:00-13:00,15:00-18:00; Th 09:00-18:00; Fr 08:00-14:00", "shop": "convenience"}}, {"type": "node", "id": 6392025044, "lat": 48.2176888, "lon": 16.4096895, "tags": {"brand": "Hofer", "brand:wikidata": "Q15815751", "brand:wikipedia": "de:Hofer KG", "check_date": "2024-08-14", "check_date:opening_hours": "2023-02-26", "level": "0", "name": "Hofer", "opening_hours": "Mo-Fr 07:40-20:00; Sa 07:40-18:00", "payment:cash": "yes", "payment:credit_cards": "yes", "payment:debit_cards": "yes", "shop": "supermarket", "wheelchair": "yes"}}, {"type": "node", "id": 6399481458, "lat": 48.218796, "lon": 16.4090855, "tags": {"brand": "Lidl", "brand:wikidata": "Q151954", "brand:wikipedia": "en:Lidl", "name": "Lidl", "opening_hours": "Mo-Fr 07:40-20:00; Sa 07:40-18:00", "shop": "supermarket", "wheelchair": "yes"}}, {"type": "node", "id": 6482762549, "lat": 48.2162389, "lon": 16.3877719, "tags": {"check_date:opening_hours": "2025-04-04", "name": "Natur und Reform", "opening_hours": "Mo-Fr 09:00-13:30,14:00-18:00; Sa 09:00-13:00", "organic": "yes", "shop": "convenience", "wheelchair": "no"}}, {"type": "node", "id": 7056719825, "lat": 48.2280647, "lon": 16.3922581, "tags": {"addr:city": "Wien", "addr:housenumber": "7A", "addr:postcode": "1020", "addr:street": "Bruno-Marek-Allee", "brand": "Billa", "brand:wikidata": "Q537781", "brand:wikipedia": "en:Billa (supermarket)", "check_date:opening_hours": "2025-04-03", "name": "Billa", "opening_hours": "Mo-Fr 07:30-19:45; Sa 07:15-18:00; Su,PH off", "payment:apple_pay": "yes", "payment:cash": "yes", "payment:coins": "yes", "payment:credit_cards": "yes", "payment:debit_cards": "yes", "payment:mastercard": "yes", "payment:visa": "yes", "shop": "supermarket", "wheelchair": "yes"}}, {"type": "node", "id": 7233411459, "lat": 48.2232319, "lon": 16.4051841, "tags": {"addr:city": "Wien", "addr:housenumber": "187", "addr:postcode": "1020", "addr:street": "Engerthstra\u00dfe", "brand": "Hofer", "brand:wikidata": "Q15815751", "brand:wikipedia": "de:Hofer KG", "name": "Hofer", "opening_hours": "Mo-Fr 07:40-20:00, Sa 07:40-18:00, Su off, PH off", "payment:coins": "yes", "payment:contactless": "yes", "payment:credit_cards": "yes", "payment:debit_cards": "yes", "payment:maestro": "yes", "payment:mastercard": "yes", "payment:notes": "yes", "payment:visa": "yes", "phone": "+43 57030 34055", "shop": "supermarket", "wheelchair": "yes"}}, {"type": "node", "id": 7922033355, "lat": 48.215681, "lon": 16.3867188, "tags": {"check_date": "2024-07-07", "name": "Joudi", "opening_hours": "Mo-Fr 08:30-21:00; Sa 08:30-18:00; Su off", "shop": "supermarket"}}, {"type": "node", "id": 7922565078, "lat": 48.2228788, "lon": 16.3878577, "tags": {"name": "Nur", "opening_hours": "Mo-Fr 08:30-21:00; Sa 08:30-18:00", "shop": "supermarket"}}, {"type": "node", "id": 7922573000, "lat": 48.2199124, "lon": 16.3814752, "tags": {"check_date:opening_hours": "2025-05-17", "diet:kosher": "yes", "name": "La Mehadrin", "opening_hours": "Mo-Th 07:30-19:00; Fr 07:30-14:00", "shop": "supermarket", "website": "https://lamehadrin.com/"}}, {"type": "node", "id": 8315148256, "lat": 48.2178829, "lon": 16.379352, "tags": {"addr:city": "Wien", "addr:housenumber": "10/2", "addr:postcode": "1020", "addr:street": "Haidgasse", "email": "ciao@tuttaposto.com", "name": "Tutta Posto", "opening_hours": "Mo, Tu 12:00-18:00; We, Fr 10:00-18:00; Sa 10:00-15:00", "origin": "italian", "phone": "+43 681 20 22 70 32", "shop": "supermarket", "website": "https://tuttaposto.com/"}}, {"type": "node", "id": 8443170053, "lat": 48.2240356, "lon": 16.4024069, "tags": {"name": "Daily Fresh", "opening_hours": "Mo-Sa 08:00-22:00", "shop": "convenience", "wheelchair": "limited"}}, {"type": "node", "id": 8461374703, "lat": 48.2259031, "lon": 16.3875515, "tags": {"addr:housenumber": "12", "addr:street": "Alliiertenstra\u00dfe", "drink:wine": "yes", "drive_through": "no", "name": "Barolista", "opening_hours": "Tu-Th 14:00-18:00; Fr 10:00-18:00; Sa 10:00-14:00", "shop": "alcohol", "wheelchair": "no"}}, {"type": "node", "id": 8503761140, "lat": 48.2189289, "lon": 16.4018052, "tags": {"addr:city": "Wien", "addr:housenumber": "27A/L1", "addr:postcode": "1020", "addr:street": "Stuwerstra\u00dfe", "name": "Toko Sederhana", "opening_hours": "Mo-Fr 09:00-20:00; Sa 08:00-18:00; Su, PH off", "origin": "indonesian", "shop": "convenience", "website": "https://www.tokosederhana.com/"}}, {"type": "node", "id": 8647727793, "lat": 48.2151556, "lon": 16.4155318}, {"type": "node", "id": 8920983357, "lat": 48.2314743, "lon": 16.3944075, "tags": {"brand": "ETSAN", "brand:wikidata": "Q25916921", "diet:halal": "only", "name": "ETSAN", "opening_hours": "Mo-Fr 08:00-19:00; Sa 08:00-18:00", "shop": "supermarket", "wheelchair": "yes"}}, {"type": "node", "id": 9200392106, "lat": 48.215748, "lon": 16.3786268, "tags": {"check_date:opening_hours": "2024-10-28", "name": "La Mehadrin", "opening_hours": "Mo-Th 07:30-18:00; Fr 07:30-14:00", "shop": "supermarket", "wheelchair": "yes"}}, {"type": "node", "id": 9532971719, "lat": 48.2158834, "lon": 16.3806765, "tags": {"brand": "Billa", "brand:wikidata": "Q537781", "brand:wikipedia": "de:Billa", "name": "Billa", "opening_hours": "Mo-Fr 07:15-19:30; Sa 07:15-18:00", "shop": "supermarket", "wheelchair": "yes"}}, {"type": "node", "id": 9542860320, "lat": 48.2139545, "lon": 16.3920163, "tags": {"origin": "russian", "shop": "convenience"}}, {"type": "node", "id": 9729561231, "lat": 48.2065602, "lon": 16.4301414, "tags": {"addr:city": "Wien", "addr:housenumber": "344", "addr:postcode": "1020", "addr:street": "Handelskai", "brand": "Billa", "brand:wikidata": "Q537781", "diet:halal": "no", "diet:kosher": "no", "name": "Billa", "opening_hours": "Mo-Fr 07:15-19:30; Sa 07:15-18:00", "shop": "supermarket", "wheelchair": "yes"}}, {"type": "node", "id": 9741298188, "lat": 48.2004748, "lon": 16.4388351, "tags": {"name": "Schadi's Greisslerei", "shop": "convenience"}}, {"type": "node", "id": 10737697751, "lat": 48.2176783, "lon": 16.394941, "tags": {"brand": "Select", "check_date": "2023-03-15", "name": "Select", "shop": "convenience"}}, {"type": "node", "id": 10739262426, "lat": 48.2137615, "lon": 16.3799951, "tags": {"name": "Olivenhain", "opening_hours": "Mo-Fr 08:30-19:00; Sa 08:30-18:00", "shop": "convenience", "wheelchair": "yes"}}, {"type": "node", "id": 10739606948, "lat": 48.2145909, "lon": 16.3802868, "tags": {"name": "Br\u00fcderladen", "shop": "convenience", "website": "https://www.barmherzige-brueder.at/unit/bruederladen/home"}}, {"type": "node", "id": 10896078217, "lat": 48.215011, "lon": 16.4155294}, {"type": "node", "id": 10896078218, "lat": 48.2149295, "lon": 16.4152304}, {"type": "node", "id": 10896078219, "lat": 48.2148884, "lon": 16.4150799}, {"type": "node", "id": 10896078252, "lat": 48.2149512, "lon": 16.4153099}, {"type": "node", "id": 10896078253, "lat": 48.214993, "lon": 16.4154634}, {"type": "node", "id": 10896078266, "lat": 48.2150828, "lon": 16.4155763}, {"type": "node", "id": 11075486718, "lat": 48.2183017, "lon": 16.3926178}, {"type": "node", "id": 11298172300, "lat": 48.2134413, "lon": 16.4028859, "tags": {"check_date": "2023-10-29", "name": "Krimskrams & Kramuri Shop", "shop": "convenience"}}, {"type": "node", "id": 11805835036, "lat": 48.2238673, "lon": 16.3896752, "tags": {"brand": "Spar", "brand:wikidata": "Q610492", "name": "Spar", "opening_hours": "Mo-Fr 07:15-19:30; Sa 07:15-18:00", "shop": "supermarket"}}, {"type": "node", "id": 11842605067, "lat": 48.218752, "lon": 16.3919322}, {"type": "node", "id": 11842605068, "lat": 48.218785, "lon": 16.3924057}, {"type": "node", "id": 11842764669, "lat": 48.2187781, "lon": 16.3923171}, {"type": "node", "id": 11842764673, "lat": 48.2182331, "lon": 16.3924783}, {"type": "node", "id": 11842764674, "lat": 48.2182902, "lon": 16.3924688}, {"type": "node", "id": 12198992794, "lat": 48.2158065, "lon": 16.3793563, "tags": {"check_date": "2024-09-25", "contact:instagram": "https://www.instagram.com/erwinscorner/", "email": "info@erwinscorner.com", "level": "0", "name": "Erwins Corner", "opening_hours": "Mo-Fr 12:00-20:00; Sa 10:00-20:00", "organic": "yes", "payment:apple_pay": "yes", "payment:cash": "yes", "payment:credit_cards": "yes", "phone": "+43 1 346018915", "shop": "supermarket", "website": "https://erwinscorner.com/", "wheelchair": "limited"}}, {"type": "node", "id": 12211500901, "lat": 48.2188354, "lon": 16.3806565, "tags": {"addr:housenumber": "37", "addr:postcode": "1020", "addr:street": "Taborstra\u00dfe", "name": "Billa to go", "opening_hours": "Mo-Fr 07:15-19:30; Sa 07:15-18:00", "shop": "supermarket", "website": "http://billa.at"}}, {"type": "node", "id": 12501659999, "lat": 48.2175713, "lon": 16.3774104, "tags": {"amenity": "vending_machine", "check_date": "2023-09-29", "indoor": "no", "payment:coins": "yes", "payment:debit_cards": "yes", "payment:notes": "yes", "vending": "cigarettes;parking_tickets"}}, {"type": "node", "id": 12630589719, "lat": 48.2263222, "lon": 16.385705, "tags": {"addr:city": "Wien", "addr:housenumber": "96", "addr:postcode": "1020", "addr:street": "Taborstra\u00dfe", "diet:gluten_free": "yes", "diet:vegan": "yes", "diet:vegetarian": "yes", "name": "VEGAN WOLF", "opening_hours": "Mo, We 09:00-16:00,  Th-Fr 9:00-19:00", "operator": "Wolfgang Suchy", "payment:cards": "yes", "payment:cash": "yes", "phone": "+43677617554332", "shop": "supermarket", "website": "https://www.veganwolf.eu/"}}, {"type": "node", "id": 13007184403, "lat": 48.2191092, "lon": 16.4134001, "tags": {"addr:floor": "0", "check_date": "2025-07-17", "level": "0", "name": "Megamarkt", "opening_hours": "Mo-Fr 08:00-20:00; Sa 08:00-18:00", "shop": "supermarket", "website": "https://mega-markt.at"}}, {"type": "way", "id": 28767197, "nodes": [316284575, 316284576, 1676205983, 1676205978, 952086466, 316284577, 10896078219, 10896078218, 3714352578, 10896078252, 10896078253, 3714352575, 10896078217, 316284579, 10896078266, 8647727793, 316284575], "tags": {"addr:city": "Wien", "addr:country": "AT", "addr:housenumber": "230A", "addr:postcode": "1020", "addr:street": "Engerthstra\u00dfe", "brand": "Spar", "brand:wikidata": "Q610492", "brand:wikipedia": "en:Spar (retailer)", "building": "retail", "building:levels": "1", "name": "Spar", "opening_hours": "Mo-Fr 07:40-20:00; Sa 07:40-18:00", "roof:colour": "green", "roof:material": "grass", "roof:shape": "flat", "shop": "supermarket", "wheelchair": "yes"}}, {"type": "way", "id": 28809167, "nodes": [316740003, 316740004, 316740005, 1835611084, 1835611063, 316740006, 1835611076, 1835611081, 316740003], "tags": {"addr:city": "Wien", "addr:country": "AT", "addr:housenumber": "364", "addr:postcode": "1020", "addr:street": "Wehlistra\u00dfe", "brand": "Hofer", "brand:wikidata": "Q15815751", "building": "retail", "building:levels": "1", "name": "Hofer", "opening_hours": "Mo-Fr 07:40-20:00; Sa 07:40-18:00", "roof:shape": "flat", "shop": "supermarket", "wheelchair": "yes"}}, {"type": "way", "id": 35551232, "nodes": [416555643, 416555644, 1191124982, 416555645, 416555646, 1191125005, 416555643], "tags": {"addr:city": "Wien", "addr:country": "AT", "addr:housenumber": "154B", "addr:postcode": "1020", "addr:street": "Engerthstra\u00dfe", "brand": "Hofer", "brand:wikidata": "Q15815751", "brand:wikipedia": "de:Hofer KG", "building": "commercial", "building:levels": "1", "check_date:opening_hours": "2025-04-18", "heritage": "2", "heritage:operator": "bda", "name": "Hofer", "opening_hours": "Mo-Fr 07:40-20:00; Sa 07:40-18:00", "phone": "+43-570 303 4097", "ref:at:bda": "9124", "roof:shape": "round", "shop": "supermarket", "toilets:wheelchair": "yes", "website": "https://www.hofer.at/", "wheelchair": "yes", "wikidata": "Q38149998"}}, {"type": "way", "id": 119776916, "nodes": [1344837670, 1344837575, 1344837688, 1344837804, 1344837670], "tags": {"building": "retail", "building:levels": "1", "name": "Zum S\u00fcmer", "roof:levels": "0", "shop": "convenience"}}, {"type": "way", "id": 158684095, "nodes": [1708400018, 1708399904, 1708399899, 1708399968, 1708400018], "tags": {"addr:city": "Wien", "addr:country": "AT", "addr:housenumber": "24-28", "addr:postcode": "1020", "addr:street": "Heinestra\u00dfe", "brand": "Lidl", "brand:wikidata": "Q151954", "brand:wikipedia": "en:Lidl", "building": "retail", "building:levels": "1", "name": "Lidl", "opening_hours": "Mo-Fr 07:40-20:00; Sa 07:40-18:00", "roof:shape": "flat", "shop": "supermarket", "source": "own eyes", "wheelchair": "yes"}}, {"type": "way", "id": 164141544, "nodes": [1758070124, 1758070120, 1758070119, 1881666831, 12501659999, 1758070121, 1758070122, 1758070123, 1758070124], "tags": {"alt_name": "Karmelitermarkt-Trafik", "building": "retail", "building:levels": "1", "height": "3", "name": "Tabak-Trafik", "opening_hours": "Mo 06:00-18:00; Tu-Fr 06:00-18:30; Sa 06:00-13:00", "payment:account_cards": "yes", "roof:shape": "flat", "shop": "kiosk", "tobacco": "yes", "wheelchair": "no"}}, {"type": "way", "id": 368897681, "nodes": [3724923995, 3724923990, 3724923985, 3724923965, 3727365972, 3727365977, 3727365978, 3724923995], "tags": {"check_date": "2025-04-26", "check_date:opening_hours": "2025-04-26", "indoor": "room", "layer": "-1", "level": "-1", "name": "Okay", "opening_hours": "Mo-Fr 06:00-23:00; Sa-Su 10:00-23:00", "payment:credit_cards": "yes", "payment:debit_cards": "yes", "room": "shop", "shop": "convenience", "wheelchair": "yes"}}, {"type": "way", "id": 368943358, "nodes": [3727531096, 3727802513, 3727802520, 3727802518, 3727802517, 4934561721, 11842605067, 3727803128, 3727803129, 11842605068, 11842764669, 3727531096], "tags": {"addr:city": "Wien", "addr:country": "AT", "addr:postcode": "1020", "brand": "Billa", "brand:wikidata": "Q537781", "brand:wikipedia": "de:Billa", "check_date": "2025-05-10", "check_date:opening_hours": "2025-05-10", "indoor": "room", "level": "0", "name": "Billa", "opening_hours": "Mo-Su 06:00-22:00", "operator": "Rewe International", "origin": "node 61274541", "payment:cash": "yes", "payment:maestro": "yes", "payment:mastercard": "yes", "payment:visa": "yes", "phone": "+43 1 2168587", "room": "shop", "shop": "supermarket", "website": "https://www.billa.at/", "wheelchair": "yes"}}, {"type": "way", "id": 1275453397, "nodes": [11075486718, 4557268306, 11842764673, 11842764674, 11075486718], "tags": {"check_date": "2024-09-08", "description": "Self service store", "indoor": "room", "level": "0", "name": "Railshop", "opening_hours": "24/7", "payment:credit_cards": "yes", "payment:debit_cards": "yes", "self_service": "yes", "shop": "convenience", "toilets": "no", "wheelchair": "yes"}}]}